branch_code,สาขา,ที่อยู่,จังหวัด,ภูมิภาค,postcode,ผอ.สาขา,เคาน์เตอร์ขาย,แคชเชียร์โครงสร้าง,โทรศัพท์,เวลาบริการ,line,facebook,เส้นทาง (Google Maps),latitude,longitude,ทำเลเป็นแบบไหน,อยู่บนเส้นถนนแบบไหน,รอบๆมักเป็นอะไร,สถานที่ใกล้เคียง
GH-101,สาขาร้อยเอ็ด,"232 หมู่ที่ 19,รอบเมือง อำเภอเมืองร้อยเอ็ด,ร้อยเอ็ด 45000",ร้อยเอ็ด,Esan,45000,092-2471301,092-2477501,092-2477601,1160,07:30 น. - 19:00 น.,https://lin.ee/tRJU76z,https://bit.ly/fb-GBH-RE,"https://maps.google.com/?q=16.035752,103.651112",16.035752,103.651112,ย่านค้าวัสดุ/ตกแต่งบ้าน / ใกล้สถานศึกษา / ใกล้ปั๊มน้ำมัน,ไม่พบข้อมูล,"ธนาคาร(2), ตู้ ATM(2), โรงเรียน(1), ร้านฮาร์ดแวร์(1), ร้านอิเล็กทรอนิกส์(1), ปั๊มน้ำมัน(1)","โรงเรียนเทศบาลวัดราษฎรอุทิศ, โกลบอลเฮ้าส์ ร้อยเอ็ด, หลังคาเหล็ก โมเดิร์น เอ สตีล สาขาร้อยเอ็ด, ATM กสิกรไทย บจก.อิสรชน ประตูน้ำร้อยเอ็ด (ร้อยเอ็ด), บริษัท เมืองไทยเอาท์เล็ท จำกัด, PTT Station ปตท.รอบเมืองร้อยเอ็ด (น้ำมัน+EV) บจ.ที พี พี พาวเวอร์, ธนาคารเพื่อการเกษตรและสหกรณ์การเกษตร สาขาพลาญชัย, ATM K-Bank, ATM ธนาคารไทยพาณิชย์ : บ.สยามโกลบอลเฮ้าส์ (ร้อยเอ็ด)"
GH-102,สาขาขอนแก่น,377 หมู่ที่ 21 ถนนมะลิวัลย์ ตำบลบ้านเป็ด อำเภอเมืองขอนแก่น จังหวัดขอนแก่น 40000,ขอนแก่น,Esan,40000,092-2471302,092-2477502,092-2477602,1160,07:30 น. - 20:00 น.,https://lin.ee/o8BvEMg,https://bit.ly/FB-GBH-KK,"https://maps.google.com/?q=16.446116,102.78175",16.446116,102.78175,ย่านค้าวัสดุ/ตกแต่งบ้าน / ใกล้สถานศึกษา / ใกล้ปั๊มน้ำมัน / ใกล้ที่พัก/โรงแรม,ไม่พบข้อมูล,"อู่ซ่อมรถ(3), ตู้ ATM(2), ปั๊มน้ำมัน(2), ร้านของตกแต่งบ้าน(2), วัด/ศาสนสถาน(1), ที่พัก/โรงแรม(1), โรงเรียน(1)","วัดโมกขวนาราม, บริษัท เดอะ กรีนเนอรี่ รีสอร์ท จำกัด, บริษัท คิงส์พาวเวอร์แมกซ์ จำกัด, ATM กสิกรไทย ห้างทองโกลบอลเฮ้าส์ ขอนแก่น, ห้างหุ้นส่วนจำกัด ดาวนิวขอนแก่น, ATM K- Bank, ไพรัชโฮมเดคคอร์, ห้างหุ้นส่วน ที พี ออโต้เทรค จำกัด, บางจาก, ศุภาลัย การ์เด้น วิลล์ มะลิวัลย์ (ขอนแก่น)"
GH-103,สาขาอุดรธานี,"202 หมู่ 5 เลี่ยงเมือง,สาขาอุดรธานี 202,ตำบล สามพร้าว อำเภอเมืองอุดรธานี,อุดรธานี 41000",อุดรธานี,Esan,41000,092-2471303,092-2477503,092-2477603,1160,07:30 น. - 20:00 น.,https://lin.ee/rITlQGW,https://bit.ly/FB-GBH-UD,"https://maps.google.com/?q=17.425789,102.812356",17.425789,102.812356,ย่านพาณิชย์/ใกล้ห้าง / ย่านค้าวัสดุ/ตกแต่งบ้าน / ใกล้สถานศึกษา / ใกล้ที่พัก/โรงแรม,ไม่พบข้อมูล,"ที่พัก/โรงแรม(3), ร้านของตกแต่งบ้าน(3), ซูเปอร์มาร์เก็ต(2), โรงเรียน(2), ห้างสรรพสินค้า(1), อู่ซ่อมรถ(1)","เซฟมาร์ท ซุปเปอร์สโตร์ สำนักงานใหญ่, โรงแรมภูคะนิง, 9D Sport Hotel, โรงแรมมองนอน อุดรธานี, โรงเรียนบ้านหนองบุนาหล่ำ, ฺบอนกาแฟ สาขาอุดรธานี, อุดรม่านดีไซน์ แอนด์ ซัพพลาย (สาขา 1), สีรุ่งรวี Pro paint อุดรธานี, บริษัท วิทยาภัณฑ์ ซูเปอร์เซ็นเตอร์ จำกัด, โกลบอลเฮ้าส์ อุดรธานี"
GH-104,สาขาเวียงกุมกาม,99/3 หมู่ที่ 11 ตำบลท่าวังตาล อำเภอสารภี จังหวัดเชียงใหม่ 50140,เชียงใหม่,Northern,50140,092-2471304,092-2477504,092-2477604,1160,07:30 น. - 20:00 น.,https://lin.ee/7kEOeLE,https://bit.ly/FB-GBH-WK,"https://maps.google.com/?q=18.743414,99.000379",18.743414,99.000379,ใกล้ที่พัก/โรงแรม,ไม่พบข้อมูล,"ที่พัก/โรงแรม(3), ตู้ ATM(1), ร้านอิเล็กทรอนิกส์(1), วัด/ศาสนสถาน(1)","เวียงกุมกาม รีสอร์ท, เวียงกุมกาม, hiii-Homtel Astra Apartment-Free Pool & Gym & Wifi, X Max guest house, ATM Bangkok Bank, เชียงใหม่ประตูดูด สไลด์ไฟฟ้ารถตู้, คริสตจักรน้ำพุแห่งชีวิต"
GH-105,สาขาระยอง,"137 หมู่ ที่ 4,ทับมา, เมืองระยอง,Rayong 21000'",ระยอง,Eastern,21000,092-2471305,092-2477505,092-2477605,1160,07:30 น. - 20:00 น.,https://lin.ee/A4V7qov,https://bit.ly/FB-GBH-RY,"https://maps.google.com/?q=12.707095,101.236589",12.707095,101.236589,ย่านค้าวัสดุ/ตกแต่งบ้าน / ย่านชุมชน/ตลาด / ใกล้สถานศึกษา / ใกล้ที่พัก/โรงแรม,ไม่พบข้อมูล,"ร้านอาหาร(2), ตู้ ATM(2), โรงเรียน(2), ที่พัก/โรงแรม(1), ร้านของตกแต่งบ้าน(1), ธนาคาร(1)","โรงพยาบาลส่งเสริมสุขภาพตำบลทับมา, ร้านอาหารนายฮ๊อก, NIDA Rooms Pramote 14 Thapma City, จรูญคาร์เซ็นเตอร์, สำนักงานเทศบาลตำบลทับมา, ATM กสิกรไทย บจก.สยามโกลบอลเฮ้าส์ ระยอง, ATM ธนาคารกสิกรไทย, โกลบอลเฮ้าส์ ระยอง, ศูนย์พัฒนาเด็กเล็กบ้านทับมา, ศูนย์การศึกษาพิเศษ ประจำจังหวัดระยอง"
GH-106,สาขาชลบุรี,"25/74 หมู่ ที่ 3,บ้านสวน, เมืองชลบุรี ชลบุรี  20000",ชลบุรี,Eastern,20000,092-2471306,092-2477506,092-2477606,1160,07:30 น. - 19:00 น.,https://lin.ee/tUyc7kR,https://bit.ly/FB-GBH-CB,"https://maps.google.com/?q=13.333305,100.981600",13.333305,100.981600,ย่านค้าวัสดุ/ตกแต่งบ้าน / ใกล้ปั๊มน้ำมัน / ใกล้ที่พัก/โรงแรม,ถนน เลี่ยงเมืองชลบุรี (ถนน),"อู่ซ่อมรถ(1), ร้านของตกแต่งบ้าน(1), ที่พัก/โรงแรม(1), ปั๊มน้ำมัน(1)","การ์โต้ ออดิโอ (KATO AUDIO), โกลบอลเฮ้าส์ ชลบุรี, MG Chonburi Bypass - เอ็มจี ชลบุรี บายพาส (Primus Group), โรงแรมบ้านสวนรีสอร์ท ชลบุรี, บริษัท จรัสแสง อิเล็คทริค จำกัด, ปั้มบางจาก (บายพาสชลบุรี), ศุภาลัย วิลล์ ชลบุรี, CHON GOOD CAR รถยนต์มือสองชลบุรี, Smart Accounting and Tax Co.,Ltd."
GH-107,สาขานครปฐม,222 หมู่ที่ 8 ตำบลลำพยา อำเภอเมืองนครปฐม จังหวัดนครปฐม 73000,นครปฐม,BKK&Metro,73000,092-2471307,092-2477507,092-2477607,1160,08:00 น. - 19:00 น.,https://lin.ee/jSshjwE,https://bit.ly/fb-GBH-NP,"https://maps.google.com/?q=13.800998,100.004520",13.800998,100.004520,ย่านพาณิชย์/ใกล้ห้าง / ย่านค้าวัสดุ/ตกแต่งบ้าน / ใกล้สถานศึกษา / ใกล้ที่พัก/โรงแรม,ซอยหนองหิน 3 (ซอย (ถนนย่อย)),"ตู้ ATM(3), อู่ซ่อมรถ(3), ร้านอิเล็กทรอนิกส์(1), ที่พัก/โรงแรม(1), โรงเรียน(1), ซูเปอร์มาร์เก็ต(1), ร้านของตกแต่งบ้าน(1)","ATM ธนาคารไทยพาณิชย์ MAKRO นครปฐม, บริษัท วีไอพี ทรัคส์ แอนด์ พาร์ท จำกัด, ค็อกพิท แม็คโคร นครปฐม, บจก. เซียงกงนครปฐม (888), ATM Bangkok Bank, Bangkok Bank Cash Deposit Machine (CDM), ศูนย์ ดาวเทียม นครปฐม จานดาวเทียม กล้องวงจรปิด โซล่าเซลล์ ประตูอัตโนมัติ พร้อมอุปกรณ์, เมมโมรี่โฮม นครปฐม, โรงเรียนบอสโกพิทักษ์, แม็คโคร นครปฐม"
GH-108,สาขาราชบุรี,"280 หมู่ ที่ 2,เจดีย์หัก, เมืองราชบุรี ราชบุรี 70000",ราชบุรี,Western,70000,092-2471308,092-2477508,092-2477608,1160,08:00 น. - 19:00 น.,https://lin.ee/kmFMvLr,https://bit.ly/FB-GBH-RB,"https://maps.google.com/?q=13.547015,99.807503",13.547015,99.807503,ย่านค้าวัสดุ/ตกแต่งบ้าน,ไม่พบข้อมูล,"ตู้ ATM(3), ร้านของตกแต่งบ้าน(2), ร้านเสื้อผ้า(1), อู่ซ่อมรถ(1)","บริษัท ไมโครลิสซิ่ง จำกัด, ATM ธนาคารไทยพาณิชย์ 7-11 ปั๊ม PTT ราชบุรี, โกลบอลเฮ้าส์ ราชบุรี, ATM SCB Bank, ATM ธนาคารไทยพาณิชย์ : บ.สยามโกลบอลเฮ้าส์ (ราชบุรี), บ้านกรองน้ำ ราชบุรี, บาย-จันหอม กรุงเทพฯ แล็บ, นิรันดร์ออโต้, โรงงานตู้ลำโพงรถยนต์ ช่างยุ่น"
GH-109,สาขากาฬสินธุ์,"193 หมู่ที่ 10, ลำพาน, เมืองกาฬสินธุ์, กาฬสินธุ์ 46000",กาฬสินธุ์,Esan,46000,092-2471309,092-2477509,092-2477609,1160,08:00 น. - 19:00 น.,https://lin.ee/6kXpeao,https://bit.ly/FB-GBH-KS,"https://maps.google.com/?q=16.413444,103.470572",16.413444,103.470572,ย่านพาณิชย์/ใกล้ห้าง / ย่านค้าวัสดุ/ตกแต่งบ้าน / ย่านชุมชน/ตลาด,ถนน ถีนานนท์ (ถนน),"ตู้ ATM(2), ร้านอาหาร(2), ซูเปอร์มาร์เก็ต(2), ร้านของตกแต่งบ้าน(1), คาเฟ่(1)","ศูนย์จำหน่ายรถยนต์เชฟโรเลต, ATM ธนาคารไทยพาณิชย์ : บ.สยามโกลบอลเฮ้าส์ (กาฬสินธุ์), โกลบอลเฮ้าส์ กาฬสินธุ์, La Mayon coffee สาขากาฬสินธุ์, ATM กรุงไทย ยืนยันตัวตน (EDC) บมจ.สยามโกลบอลเฮ้าส์ (กาฬสินธุ์), เค.เอ.เอส ยนตรการ กาฬสินธุ์, ออโตเซลส์ อินทรี คอนกรีต, บริษัท บางนาแป้งมัน จำกัด, BANGNA TAPIOCA FLOUR, โรงน้ำดื่มไดโน"
GH-110,สาขานครสวรรค์,"99/6 หมู่ที่ 10, ตำบลหนองกรด อำเภอเมืองนครสวรรค์ จังหวัดนครสวรรค์, 60240",นครสวรรค์,Northern,60240,092-2471310,092-2477510,092-2477610,1160,07:30 น. - 20:00 น.,https://lin.ee/3HFXm3G,https://bit.ly/FB-GBH-NW,"https://maps.google.com/?q=15.712625,100.054898",15.712625,100.054898,ย่านพาณิชย์/ใกล้ห้าง / ย่านค้าวัสดุ/ตกแต่งบ้าน / ย่านชุมชน/ตลาด / ใกล้ปั๊มน้ำมัน,ไม่พบข้อมูล,"คาเฟ่(4), ร้านอาหาร(2), ร้านของตกแต่งบ้าน(1), ห้างสรรพสินค้า(1), ปั๊มน้ำมัน(1), ตู้ ATM(1)","โกลบอลเฮ้าส์ นครสวรรค์, ศูนย์บริการทีทีแอนด์ทีครสวรรค์, ปั๊มน้ำมันและEVบางจาก - สหกรณ์การเกษตร เมืองนครสวรรค์ จำกัด, บริษัท ประกันภัยไทยวิวัฒน์ จำกัด (มหาชน) สาขานครสวรรค์, ATM ธนาคารธนชาต (มหาวิทยาลัยเจ้าพระยา), La Mayon coffee สาขานครสวรรค์, โกลบอลเฮ้าส์ สาขานครสวรรค์, บ้านโมบาย, บริษัท กฤชเจริญ รับสร้างบ้าน, Airplane Cafe นครสวรรค์"
GH-112,สาขามหาสารคาม,"28 ถนน สารคาม วาปีปทุม,ตลาด, เมืองมหาสารคาม 44000",มหาสารคาม,Esan,44000,092-2471311,092-2477511,092-2477611,1160,07:30 น. - 19:00 น.,https://lin.ee/zXtI7wc,https://bit.ly/FB-GBH-MS,"https://maps.google.com/?q=16.169304,103.309458",16.169304,103.309458,ย่านค้าวัสดุ/ตกแต่งบ้าน,ไม่พบข้อมูล,"คาเฟ่(2), ร้านของตกแต่งบ้าน(1), อู่ซ่อมรถ(1), ธนาคาร(1), ตู้ ATM(1)","โกลบอลเฮ้าส์ สาขามหาสารคาม, ThePrincessHouseCosmetic&Spa, S Xenon-RA, ห้างหุ้นส่วนจำกัด ศรีสงวนชัย มอเตอร์, เวสเทิร์น ยูเนี่ยน, La mayon coffee, ATM กสิกรไทย บมจ.สยามโกลบอลเฮ้าส์ มหาสารคาม, ATM ธนาคารไทยพาณิชย์ : บ.สยามโกลบอลเฮ้าส์ (มหาสารคาม), สมาคมกู้ภัยเทพนิมิตร มหาสารคาม, ทอฝันคอฟฟี่ คาเฟ่"
GH-113,สาขาบ้านไผ่,เลขที่ 77 หมู่ที่ 6 ตำบล/แขวง หัวหนอง อำเภอ/เขต บ้านไผ่ จังหวัด ขอนแก่น 40110,ขอนแก่น,Esan,40110,092-2471325,092-2477525,092-2477625,1160,08:00 น. - 19:00 น.,https://lin.ee/vA014mW,https://bit.ly/33CQEk2,"https://maps.google.com/?q=16.050809,102.7114413",16.050809,102.7114413,ย่านพาณิชย์/ใกล้ห้าง / ย่านค้าวัสดุ/ตกแต่งบ้าน / ใกล้สถานศึกษา / ใกล้ที่พัก/โรงแรม,ไม่พบข้อมูล,"ธนาคาร(2), ตู้ ATM(2), ร้านของตกแต่งบ้าน(1), ซูเปอร์มาร์เก็ต(1), โรงเรียน(1), ที่พัก/โรงแรม(1)","ธนาคารเพื่อการเกษตรและสหกรณ์การเกษตร สาขาบ้านไผ่, ศูนย์จำหน่ายรถยนต์อีซูซุ, โกลบอลเฮ้าส์ บ้านไผ่, บิ๊กซี บ้านไผ่, ธกส. สาขาบ้านไผ่, ATM Bank for Agriculture and Agricultural Cooperatives, โรงเรียนบ้านไผ่ยิ่งยงอุทิศ, ศูนย์วิทยาศาสตร์เพื่อการศึกษาจังหวัดขอนแก่น กรมส่งเสริมการเรียนรู้ กระทรวงศึกษาธิการ, วิชี่ ไทยแลนด์ ร้านบริษัท บิ๊กซีซูเปอร์เซ็นเตอร์ จำกัด, ATM K- Bank"
GH-114,สาขาหนองคาย,365 หมู่ 6 ตำบลหนองกอมเกาะ อำเภอเมืองหนองคาย จังหวัดหนองคาย 43000,หนองคาย,Esan,43000,092-2471312,092-2477512,092-2477612,1160,08:00 น. - 19:00 น.,https://lin.ee/uTB96Ts,https://bit.ly/FB-GBH-NK,"https://maps.google.com/?q=17.833740,102.752140",17.833740,102.752140,ย่านค้าวัสดุ/ตกแต่งบ้าน,ไม่พบข้อมูล,"ตู้ ATM(3), ธนาคาร(2), ร้านของตกแต่งบ้าน(1), อู่ซ่อมรถ(1)","ATM กสิกรไทย บมจ.สยามโกลบอลเฮ้าส์ สาขาหนองคาย, โกลบอลเฮ้าส์ หนองคาย, ATM K-Bank, บริษัท พิจิตรเพชรยานยนต์ จำกัด, ATM Krung Thai Bank, ATM กสิกรไทย แม็คโคร หนองคาย, ฟอร์ดฑีฆเจริญ สาขา หนองคาย"
GH-115,สาขานครราชสีมา,493 หมู่ที่ 2 ตำบลบ้านเกาะ อำเภอเมืองนครราชสีมา จังหวัดนครราชสีมา 30000,นครราชสีมา,Esan,30000,092-2471313,092-2477513,092-2477613,1160,07:30 น. - 20:00 น.,https://lin.ee/oHeCORQ,https://bit.ly/FB-GBH-NS,"https://maps.google.com/?q=15.006401,102.126459",15.006401,102.126459,ย่านค้าวัสดุ/ตกแต่งบ้าน / ใกล้สถานศึกษา / ใกล้ปั๊มน้ำมัน / ใกล้ที่พัก/โรงแรม,ถนน มิตรภาพ (ถนน),"ที่พัก/โรงแรม(4), โรงเรียน(2), วัด/ศาสนสถาน(1), ร้านของตกแต่งบ้าน(1), อู่ซ่อมรถ(1), ปั๊มน้ำมัน(1)","ยู-สบาย พาร์ค โฮเทล & รีสอร์ท, วันดีดีรีสอร์ท โคราช, วัดสระบัวเกลื่อน, Baan Le Vimaan resort (บ้านเลอวิมาน รีสอร์ท), โรงเรียนบึงพญาปราบ, โกลบอลเฮ้าส์ นครราชสีมา, บริษัท โตโยต้าทองรวยสีมา จำกัด (จอหอ), ศูนย์ซ่อมสีและตัวถัง สาขา-โคราช เอกสหกรุ๊ป Ford-Mazda-Nissan, ฟอร์ด โคราช-จอหอ เอกสหกรุ๊ป, GWM Korat"
GH-116,สาขาสกลนคร,444  ถนนสกลนคร-นาแก ตำบลธาตุเชิงชุม อำเภอเมืองสกลนคร      จังหวัดสกลนคร 47000,สกลนคร,Esan,47000,092-2471314,092-2477514,092-2477614,1160,08:00 น. - 19:00 น.,https://lin.ee/njupD0h,https://bit.ly/FB-GBH-SN,"https://maps.google.com/?q=17.128782,104.139370",17.128782,104.139370,ย่านค้าวัสดุ/ตกแต่งบ้าน / ย่านชุมชน/ตลาด,ไม่พบข้อมูล,"คาเฟ่(3), ตู้ ATM(2), ร้านของตกแต่งบ้าน(1), ร้านฮาร์ดแวร์(1), วัด/ศาสนสถาน(1), อู่ซ่อมรถ(1), ร้านอาหาร(1)","โกลบอลเฮ้าส์ สกลนคร, อินทนิลสปา, บริษัท ห้างกระจกตังน้ำ จำกัด สาขาสกลนคร, ตู้ ATM ไทยพาณิชย์, La Mayon coffee สาขาสกลนคร, บมจ.สยามโกลบอลเฮ้าส์ (สกลนคร), ภาษามือ coffee ร้านกแฟคนหูหนวก, สตางค์ คาเฟ่ แอนด์ เรสเตอรองท์, วัดบ้านนาอ้อย, พีทีที ยานยนต์ - ช่างแป๊ปซี่"
GH-117,สาขานครพนม,147/3 ถนนประชาร่วมมิตร ตำบลหนองญาติ อำเภอเมืองนครพนม จังหวัดนครพนม 48000,นครพนม,Esan,48000,092-2471315,092-2477515,092-2477615,1160,08:00 น. - 19:00 น.,https://lin.ee/1Zx1FXT,https://bit.ly/FB-GBH-NN,"https://maps.google.com/?q=17.376547,104.786851",17.376547,104.786851,ย่านค้าวัสดุ/ตกแต่งบ้าน / ย่านชุมชน/ตลาด / ใกล้สถานศึกษา / ใกล้ปั๊มน้ำมัน / ใกล้ที่พัก/โรงแรม,ถนนเลี่ยงเมือง (ถนน),"ร้านอาหาร(7), ที่พัก/โรงแรม(2), อู่ซ่อมรถ(1), ร้านของตกแต่งบ้าน(1), โรงเรียน(1), ร้านอิเล็กทรอนิกส์(1), ปั๊มน้ำมัน(1)","โรงแรมเดอะริเวอร์ นครพนม, ประยูรปลาเผา, สวนอาหารสวนไผ่ริมโขง, อู่เฉลิมการช่าง, โกลบอลเฮ้าส์ นครพนม, โรงเรียนบ้านน้อยใต้, ร้านนครแซทคอม, PTT Station ปตท.เลี่ยงเมืองนครพนม (น้ำมัน+EV) หจก. พนมบริการ, 7-Eleven สาขา PTTOR เลี่ยงเมืองนครพนม (04392), Quality Foods Deli Shop"
GH-118,สาขาชัยภูมิ,เลขที่ 8 หมู่ที่ 11 ตำบล/แขวง หนองนาแซง อำเภอ/เขต เมืองชัยภูมิ จังหวัด ชัยภูมิ 36000,ชัยภูมิ,Esan,36000,092-2471316,092-2477516,092-2477616,1160,07:30 น. - 19:00 น.,https://lin.ee/4AidXEm,https://bit.ly/FB-GBH-CP,"https://maps.google.com/?q=15.7636941,102.022294",15.7636941,102.022294,ย่านค้าวัสดุ/ตกแต่งบ้าน / ย่านชุมชน/ตลาด / ใกล้ปั๊มน้ำมัน / ใกล้ที่พัก/โรงแรม,ไม่พบข้อมูล,"ร้านของตกแต่งบ้าน(3), อู่ซ่อมรถ(2), คาเฟ่(2), ร้านอาหาร(2), ที่พัก/โรงแรม(1), ปั๊มน้ำมัน(1)","โรงแรมบีบีเอ็ม, บริษัท ค็อกพิท สำราญการยาง จำกัด, โกลบอลเฮ้าส์ ชัยภูมิ, บ้านกรองน้ำ ชัยภูมิ, Inthanin Coffee, ปั๊มน้ำมันบางจาก - ชัยภูมิ, โฮมโปร ชัยภูมิ, La Mayon coffee (ลามายอน), ร้านวนิดาลาบก้อย, เกดไก่ย่าง ลาบก้อย ตามสั่ง"
GH-119,สาขาสุรินทร์,88 หมู่ที่ 13 ตำบลเฉนียง อำเภอเมืองสุรินทร์ จังหวัดสุรินทร์ 32000,สุรินทร์,Esan,32000,092-2471317,092-2477517,092-2477617,1160,07:30 น. - 19:00 น.,https://lin.ee/g94P2NW,https://bit.ly/FB-GBH-SR,"https://maps.google.com/?q=14.850555,103.472854",14.850555,103.472854,ย่านค้าวัสดุ/ตกแต่งบ้าน / ใกล้สถานศึกษา / ใกล้ที่พัก/โรงแรม,ไม่พบข้อมูล,"ร้านของตกแต่งบ้าน(2), ที่พัก/โรงแรม(2), ตู้ ATM(2), วัด/ศาสนสถาน(1), โรงเรียน(1), คาเฟ่(1)","วัดป่าโยธาประสิทธิ์, สำนักงานประกันสังคมจังหวัดสุรินทร์, พิพิธภัณฑ์สถานแห่งชาติสุรินทร์, โกลบอลเฮ้าส์ สุรินทร์, หจก.เกษมซีเมนต์บล็อก, มาสด้าสุรินทร์, โรงเรียนบ้านหนองเต่า, เจ้าสัว รีสอร์ท, โรงแรม สวนป่ารีสอร์ท, ATM กรุงไทย ยืนยันตัวตน (EDC) บมจ.สยามโกลบอลเฮ้าส์ (สุรินทร์)"
GH-120,สาขาพิษณุโลก,9/9 หมู่ที่ 7 ตำบลวัดจันทร์ อำเภอเมืองพิษณุโลก จังหวัดพิษณุโลก 65000,พิษณุโลก,Northern,65000,092-2471318,092-2477518,092-2477618,1160,07:30 น. - 20:00 น.,https://lin.ee/93tojb9,https://bit.ly/FB-GBH-PL,"https://maps.google.com/?q=16.811304,100.228059",16.811304,100.228059,ย่านค้าวัสดุ/ตกแต่งบ้าน / ย่านชุมชน/ตลาด / ใกล้ที่พัก/โรงแรม,ไม่พบข้อมูล,"ร้านของตกแต่งบ้าน(3), ที่พัก/โรงแรม(2), ร้านอาหาร(2), ร้านอิเล็กทรอนิกส์(1), อู่ซ่อมรถ(1), คาเฟ่(1)","โรงแรมวนารมย์, บริษัท พี.แอล.อีเลคทริคอล เทรดดิ้ง จำกัด, โกลบอลเฮ้าส์ พิษณุโลก, เมเจอร์ เฟอร์นิเจอร์ มอลล์ พิษณุโลก Major Furniture Mall phitsanulok, คอนเน็คชั่น, บริษัท สแควเวฟ เน็ตเวอร์ค กรุ๊ป จำกัด, สวนบ้านคลอง, บริษัท เอ เค เมทัล ชีท จำกัด, โรงแรมฮ็อป อินน์ พิษณุโลก, อู่ วีไอพีปรีดาซุปเปอร์คาร์"
GH-121,สาขาลำพูน,เลขที่ 161 หมู่ที่ 5 ตำบล/แขวง เวียงยอง อำเภอ/เขต เมืองลำพูน จังหวัด ลำพูน 51000,ลำพูน,Northern,51000,092-2471319,092-2477519,092-2477619,1160,08:00 น. - 19:00 น.,https://lin.ee/3D5d4Z8,https://bit.ly/FB-GBH-LP,"https://maps.google.com/?q=18.561409,99.033944",18.561409,99.033944,ย่านพาณิชย์/ใกล้ห้าง / ย่านค้าวัสดุ/ตกแต่งบ้าน / ใกล้ปั๊มน้ำมัน,ไม่พบข้อมูล,"ธนาคาร(2), ร้านของตกแต่งบ้าน(2), ตู้ ATM(2), วัด/ศาสนสถาน(1), ปั๊มน้ำมัน(1), ซูเปอร์มาร์เก็ต(1)","วัดแม่สารบ้านหลุก, ATM กสิกรไทย กาดจตุจักรลำพูน(ป่าสัก), สหพานิช ลำพูน, โกลบอลเฮ้าส์ สาขาลำพูน, ปั๊มน้ำมันบางจาก - บริษัท เวียงออยล์ จำกัด, DHL Global Forwarding, คลินิก หมอทรงศักดิ์, หมูอินเตอร์ สาขาลำพูน : หมูสด ไก่สด ไข่ อาหารแช่แข็ง และเครื่องปรุง, ATM Bangkok Bank, ATM K-Bank"
GH-122,สาขามุกดาหาร,35/8 ถนนชยางกูร ก ตำบลมุกดาหาร อำเภอเมืองมุกดาหาร จังหวัดมุกดาหาร 49000,มุกดาหาร,Esan,49000,092-2471320,092-2477520,092-2477620,1160,08:00 น. - 19:00 น.,https://lin.ee/wedI0KM,https://bit.ly/FB-GBH-MD,"https://maps.google.com/?q=16.535158,104.702566",16.535158,104.702566,ย่านพาณิชย์/ใกล้ห้าง / ย่านค้าวัสดุ/ตกแต่งบ้าน / ใกล้สถานศึกษา / ใกล้ที่พัก/โรงแรม,ถนน ชยางกูร (ถนน),"ร้านของตกแต่งบ้าน(2), โรงเรียน(1), อู่ซ่อมรถ(1), วัด/ศาสนสถาน(1), ฟิตเนส(1), ซูเปอร์มาร์เก็ต(1), ที่พัก/โรงแรม(1)","โรงเรียน ที โอ เอ วิทยา (โรงเรียนเทศบาล 1 วัดคำสายทอง), สหกรณ์ออมทรัพย์ครูมุกดาหาร จก, บจก.ศักดาอะไหล่ยนต์(1991), คริสตจักรมุกดาหาร, แสงอุดมไลท์ติ้งเซ็นเตอร์ สาขามุกดาหาร, ค่ายมวยเยาวราชมุกดาหาร-วังทองมวยไทย, การประปาส่วนภูมิภาค สาขามุกดาหาร, แม็คโคร มุกดาหาร, โรงแรมบ้านดาหลา Bandahla Hotel, ติดตั้งแอร์"
GH-123,สาขาประจวบคีรีขันธ์,1/2 ถนน เพชรเกษม ตำบล/แขวง ประจวบคีรีขันธ์ อำเภอ/เขต เมืองประจวบคีรีขันธ์ จังหวัดประจวบคีรีขันธ์ 77000,ประจวบคีรีขันธ์,Western,77000,0931374647,0931395347,0931393847,1160,08:00 น. - 19:00 น.,https://lin.ee/klQAPiQ,https://bit.ly/2wkQBNU,"https://maps.google.com/?q=11.820999,99.781905",11.820999,99.781905,ย่านพาณิชย์/ใกล้ห้าง / ย่านค้าวัสดุ/ตกแต่งบ้าน / ย่านชุมชน/ตลาด / ใกล้สถานศึกษา / ใกล้ปั๊มน้ำมัน,ถนน เพชรเกษม (ถนน),"สถานีตำรวจ(2), โรงเรียน(2), ตู้ ATM(2), ปั๊มน้ำมัน(1), ร้านของตกแต่งบ้าน(1), ซูเปอร์มาร์เก็ต(1), ธนาคาร(1)","หน่วยบริการประชาชนตำรวจทางหลวงจังหวัดประจวบคีรีขันธ์, โรงเรียนเทศบาลบ้านค่าย, PTT Station ปตท.ประจวบฯ ขาล่องใต้ (น้ำมัน+EV) (บจก.ประจวบคีรีขันธ์ปิโตรเลียม), โกลบอลเฮ้าส์ ประจวบคีรีขันธ์, แม็คโคร ประจวบคีรีขันธ์, ตู้เอทีเอ็ม ธนาคารกสิกรไทย, ATM กสิกรไทย ปตท.บจก.ประจวบคีรีขันธ์ปิโตรเลียม, 7-Eleven สาขา PTTOR ประจวบคีรีขันธ์ (04538), Helens de Fleur, ATM K- Bank"
GH-124,สาขาลำปาง,518 หมู่ 11 ตำบลปงแสนทอง อำเภอเมืองลำปาง จังหวัดลำปาง 52100,ลำปาง,Northern,52100,092-2471322,092-2477522,092-2477622,1160,08:00 น. - 19:00 น.,https://lin.ee/fw3goEb,https://bit.ly/2Uy3Se6,"https://maps.google.com/?q=18.280142,99.450768",18.280142,99.450768,ย่านค้าวัสดุ/ตกแต่งบ้าน / ย่านชุมชน/ตลาด / ใกล้ที่พัก/โรงแรม,ไม่พบข้อมูล,"คาเฟ่(3), อู่ซ่อมรถ(2), ที่พัก/โรงแรม(2), ตู้ ATM(2), ร้านของตกแต่งบ้าน(1), ร้านอาหาร(1)","โกลบอลเฮ้าส์ สาขาลำปาง, สถานตรวจรถเอกชน (ตรอ.) เขมินท์, บี ซี เพลส, La Mayon coffee สาขาลำปาง, ATM กรุงไทย ยืนยันตัวตน (EDC) บมจ.สยามโกลบอลเฮ้าส์ (ลำปาง), Bee's Coffee @Global house Lampang, ATM ธนาคารไทยพาณิชย์ : บ.สยามโกลบอลเฮ้าส์ (ลำปาง), ติดตั้งแอร์, Nice and Cozy place in Chiang Mai Town, หนึ่งโมดิฟาย@ซาวด์"
GH-125,สาขาแพร่,158 หมู่ที่ 2 ตำบลร่องกาศ อำเภอสูงเม่น จังหวัดแพร่ 54130,แพร่,Northern,54130,092-2471321,092-2477521,092-2477621,1160,08:00 น. - 19:00 น.,https://lin.ee/CjwmUW7,https://bit.ly/FB-GBH-PR,"https://maps.google.com/?q=18.107700,100.136969",18.107700,100.136969,ย่านค้าวัสดุ/ตกแต่งบ้าน / ย่านชุมชน/ตลาด / ใกล้ที่พัก/โรงแรม,ถนน ยันตรกิจโกศล (ถนน),"ร้านของตกแต่งบ้าน(2), ตู้ ATM(2), ร้านอาหาร(2), ที่พัก/โรงแรม(1), อู่ซ่อมรถ(1), คาเฟ่(1), สถานีตำรวจ(1)","คลินิกเวชกรรมนายแพทย์วิชิน, The Northern View Hotel, ภาณุวัฒน์เฟอร์นิเจอร์, หจก.สยามคาร์เซอร์วิส 2004 ร้านขายอุปกรณ์แต่งรถแม็กยาง, สถานีอนามัยตำบลร่องกาศ, ATM Bank for Agriculture and Agricultural Cooperatives, ร้านอาหารคำสมร, สวนอาหารบ้านฝ้าย, LaMayon coffee สาขาแพร่, สถานีตำรวจชุมชนร่องกาศ"
GH-126,สาขาน่าน,288 หมู่ 11 ตำบลไชยสถาน อำเภอเมืองน่าน จังหวัดน่าน 55000,น่าน,Northern,55000,092-2471323,092-2477523,092-2477623,1160,07:30 น. - 19:00 น.,https://lin.ee/vDAINy3,https://bit.ly/FB-GBH-NA,"https://maps.google.com/?q=18.792032,100.733173",18.792032,100.733173,ย่านค้าวัสดุ/ตกแต่งบ้าน / ย่านชุมชน/ตลาด / ใกล้ที่พัก/โรงแรม,ไม่พบข้อมูล,"ที่พัก/โรงแรม(1), ร้านของตกแต่งบ้าน(1), ตู้ ATM(1), ร้านอาหาร(1)","บ้านสวนลีลาวดีรีสอร์ท น่าน, โกลบอลเฮ้าส์ น่าน, สำนักงานจัดหางานจังหวัดน่าน, ATM ธนาคารทหารไทย, องค์การบริหารส่วนจังหวัดน่าน, ร้านครัวมันวาว"
GH-127,สาขาเชียงราย,296 หมู่ที่ 1 ตำบลท่าสาย อำเภอเมืองเชียงราย จังหวัดเชียงราย  57000,เชียงราย,Northern,57000,0621975343,0621985943,0614212143,1160,07:30 น. - 20:00 น.,https://lin.ee/bFGqk9M,https://bit.ly/3bihalG,"https://maps.google.com/?q=19.869528,99.836468",19.869528,99.836468,ย่านพาณิชย์/ใกล้ห้าง / ย่านค้าวัสดุ/ตกแต่งบ้าน / ย่านชุมชน/ตลาด / ใกล้โรงพยาบาล,ไม่พบข้อมูล,"ร้านของตกแต่งบ้าน(3), อู่ซ่อมรถ(2), ร้านอาหาร(1), ร้านอิเล็กทรอนิกส์(1), ร้านฮาร์ดแวร์(1), ตู้ ATM(1), โรงพยาบาล(1)","คูโบต้าจุงชัย เชียงราย, โกลบอลเฮ้าส์ เชียงราย, ท็อป เชียงราย บาดาล, สยามนาโน ออนไลน์ ช็อปปิ้ง, โฮมโปร & เมกาโฮม เชียงราย, ไทวัสดุ เชียงราย, บริษัท ไทยสมุทรประกันชีวิต จำกัด สาขา เชียงราย, ATM กสิกรไทย ตลาดโชคเจริญ เชียงราย, Dr.car by ต้นส้มออโต้เซอร์วิส, โรงพยาบาลเกษมราษฎร์ ศรีบุรินทร์"
GH-128,สาขาสุโขทัย,เลขที่ 88 หมู่ที่ 6 ตำบล/แขวง บ้านกล้วย อำเภอ/เขต เมืองสุโขทัย จังหวัด สุโขทัย 64000,สุโขทัย,Northern,64000,092-2471324,092-2477524,092-2477624,1160,08:00 น. - 19:00 น.,https://lin.ee/wn4NaxF,https://bit.ly/33zQUR4,"https://maps.google.com/?q=17.0106224,99.7691745",17.0106224,99.7691745,ย่านค้าวัสดุ/ตกแต่งบ้าน / ย่านชุมชน/ตลาด / ใกล้สถานศึกษา / ใกล้ที่พัก/โรงแรม,ไม่พบข้อมูล,"ธนาคาร(3), ร้านของตกแต่งบ้าน(2), ที่พัก/โรงแรม(1), ตู้ ATM(1), เบเกอรี่(1), ร้านอาหาร(1), โรงเรียน(1)","ชวนชม รีสอร์ท, โกลบอลเฮ้าส์ สุโขทัย, เพทายผ้าม่าน, ธ.ก.ส.สาขาบ้านกล้วย, ธนาคารเพื่อการเกษตรและสหกรณ์การเกษตร สาขาบ้านกล้วย, KT OPTIC ร้านแว่นตา ศูนย์เลนส์โปรเกรสซีฟ สาขา บิ๊กซี สุโขทัย (Optical shop Progressive Lens Center), Siam Commercial Bank Cash Deposit Machine (CDM), ATM กสิกรไทย บิ๊กซี สุโขทัย, ร้านมิสเตอร์ โดนัท, เค เอฟ ซี"
GH-129,สาขาอุบลราชธานี,90 หมู่ที่ 2 ตำบลโนนผึ้ง อำเภอวารินชำราบ จังหวัดอุบลราชธานี 34190,อุบลราชธานี,Esan,34190,092-2471327,092-2477527,092-2477627,1160,07:30 น. - 19:00 น.,https://lin.ee/2wHDMiH,https://bit.ly/2QCiVCb,"https://maps.google.com/?q=15.181644,104.8229013",15.181644,104.8229013,ย่านค้าวัสดุ/ตกแต่งบ้าน / ย่านชุมชน/ตลาด,ไม่พบข้อมูล,"ร้านของตกแต่งบ้าน(1), ร้านอิเล็กทรอนิกส์(1), ร้านเสื้อผ้า(1), ตู้ ATM(1), คาเฟ่(1), วัด/ศาสนสถาน(1), ร้านอาหาร(1)","โกลบอลเฮ้าส์ อุบลราชธานี, กล้องวงจรปิด อุบลราชธานี, ดีมิกซ์คอนกรีต (สาขา วารินชำราบ), ขวัญเมืองเสื้อพิมพ์ลายท้องถิ่นและธรรมชาติ, มุกดาทรัพทย์, ATM กรุงไทย ยืนยันตัวตน (EDC) บมจ.สยามโกลบอลเฮ้าส์ (อุบลราชธานี), La Mayon coffee สาขาอุบลราชธานี, วัดเหรียญทอง, หมูปลาร้า BM, โครงการ At Rianthong (แอดเหรียญทอง)"
GH-130,สาขากำแพงเพชร,11 หมู่ที่ 10 ตำบลนครชุม อำเภอเมืองกำแพงเพชร จังหวัดกำแพงเพชร 62000,กำแพงเพชร,Northern,62000,092-2471326,092-2477526,092-2477626,1160,07:30 น. - 19:00 น.,https://lin.ee/63kUjUj,https://bit.ly/2WBoggO,"https://maps.google.com/?q=16.489686,99.481630",16.489686,99.481630,ย่านค้าวัสดุ/ตกแต่งบ้าน / ย่านชุมชน/ตลาด / ใกล้สถานศึกษา / ใกล้โรงพยาบาล / ใกล้ปั๊มน้ำมัน / ใกล้ที่พัก/โรงแรม,ทางหลวงสายเอเชียหมายเลข 1 (ทางหลวงแผ่นดิน),"ร้านอาหาร(2), อู่ซ่อมรถ(2), ร้านของตกแต่งบ้าน(1), ปั๊มน้ำมัน(1), โรงเรียน(1), ที่พัก/โรงแรม(1), โรงพยาบาล(1)","โกลบอลเฮ้าส์ กำแพงเพชร, ปตท.สุทธิศักดิ์บริการ, บจก. กำแพงเพชร อบพืชและไซโล, 7-Eleven สาขา PTTOR นครชุม (กำแพงเพชร) (08458), โรงเรียนบ้านโนนม่วง, โรงกลึง ช.บูรพากลการ๕, ร้านเจริญรส ข้าวแกง บ้านโคนใต้, อู่ช่างแมนซ่อมมอเตอร์ไซส์, สรวิชญ์, ปะยาง ยาง% mag"
GH-131,สาขาเพชรบูรณ์,"333 หมู่ที่ 12, ตำบลนางั่ว, อำเภอเมืองเพชรบูรณ์ เพชรบูรณ์ 67000",เพชรบูรณ์,Northern,67000,092-2471333,092-2477533,092-2477633,1160,08:00 น. - 19:00 น.,https://lin.ee/vMQjFuE,https://bit.ly/3bdTb75,"https://maps.google.com/?q=16.4730243,101.1572727",16.4730243,101.1572727,ย่านพาณิชย์/ใกล้ห้าง / ย่านค้าวัสดุ/ตกแต่งบ้าน / ย่านชุมชน/ตลาด / ใกล้ปั๊มน้ำมัน / ใกล้ที่พัก/โรงแรม,ถนน สามัคคีชัย (ถนน),"ที่พัก/โรงแรม(4), ร้านอาหาร(3), ซูเปอร์มาร์เก็ต(3), ปั๊มน้ำมัน(1), ร้านของตกแต่งบ้าน(1), คาเฟ่(1)","ไม้งามรีสอร์ท เพชรบูรณ์, ขนมจีนโบราณบ้านคุณตา, ปั๊มแก๊สรถยนต์แอลพีจี สยามแก๊ส LPG, โกลบอลเฮ้าส์ เพชรบูรณ์, การิตาเพลส, WONGMEEMA 3, โฮมแลนด์ รีสอร์ท, ร้านA&Dเบเกอร์รี่, Lom, Sane"
GH-132,สาขาลพบุรี,"41/3 หมู่ที่ 1, นิคมสร้างตนเอง, เมืองลพบุรี, ลพบุรี 15000",ลพบุรี,Central,15000,092-2471329,092-2477529,092-2477629,1160,08:00 น. - 19:00 น.,https://lin.ee/lOYKDOe,https://bit.ly/2J4K0K3,"https://maps.google.com/?q=14.762903,100.7142264",14.762903,100.7142264,ย่านค้าวัสดุ/ตกแต่งบ้าน / ใกล้สถานศึกษา / ใกล้โรงพยาบาล / ใกล้ปั๊มน้ำมัน / ใกล้ที่พัก/โรงแรม,ไม่พบข้อมูล,"โรงเรียน(2), ตู้ ATM(2), ร้านของตกแต่งบ้าน(1), ที่พัก/โรงแรม(1), โรงพยาบาล(1), คาเฟ่(1), ปั๊มน้ำมัน(1)","โรงเรียนการศึกษาคนตาบอดและคนตาบอดพิการซ้ำซ้อน ลพบุรี, โกลบอลเฮ้าส์ ลพบุรี, เอซีเดลโก้ พีอาร์ออโต้ ลพบุรี (ACDelco PR Auto Lopburi), The Residence Hotel-2, Lopburi, โรงแรมลพบุรีเรสIซิเดนซ์2, ลพบุรีเอ็มอาร์ไอคลินิกเวชกรรม, ร้านกาแฟ RinyaCoffee - รินญาคอฟฟี่, PTT Station ปตท. - จิฟฟี่สาขาลพบุรี-นิคม (น้ำมัน+EV), ATM กสิกรไทย PTT RM ลพบุรี-นิคม, ATM K-Bank, ตู้เอทีเอ็ม ธนาคารกสิกรไทย"
GH-135,สาขาจันทบุรี,83 หมู่ที่ 6 ตำบลเขาวัว อำเภอท่าใหม่ จังหวัดจันทบุรี 22120,จันทบุรี,Eastern,22120,092-2471330,092-2477530,092-2477630,1160,08:00 น. - 19:00 น.,https://lin.ee/9BXpFoO,https://bit.ly/2Ul2Vp2,"https://maps.google.com/?q=12.663209,102.068858",12.663209,102.068858,ย่านค้าวัสดุ/ตกแต่งบ้าน / ย่านชุมชน/ตลาด / ใกล้ปั๊มน้ำมัน,ไม่พบข้อมูล,"ร้านของตกแต่งบ้าน(2), คาเฟ่(2), ร้านอาหาร(2), ปั๊มน้ำมัน(1), ตู้ ATM(1), อู่ซ่อมรถ(1)","องค์การบริหารส่วนจังหวัดจันทบุรี​, โกลบอลเฮ้าส์ จันทบุรี, ไทวัสดุ จันทบุรี, ปตท.เขาตานก จันทบุรี, ATM ธนาคารกรุงไทย สาขาโกลบอลเฮ้าส์ (จันทบุรี), ทุเรียน ""ร้านน้องนัท"", วิจาร์ณ แซง, สละลอยแก้ว ตรานายสะละ, PaPa Coffee, ก๋วยเตี๋ยว ปั๊มบางจาก"
GH-136,สาขาตราด,62/26 หมู่ที่ 5 ตำบลวังกระแจะ อำเภอเมืองตราด จังหวัดตราด 23000,ตราด,Eastern,23000,092-2471331,092-2477531,092-2477631,1160,08:00 น. - 19:00 น.,https://lin.ee/xcCq422,https://bit.ly/2WFSVtD,"https://maps.google.com/?q=12.281551,102.488696",12.281551,102.488696,ย่านค้าวัสดุ/ตกแต่งบ้าน / ใกล้ที่พัก/โรงแรม,ไม่พบข้อมูล,"ร้านของตกแต่งบ้าน(3), เบเกอรี่(2), คาเฟ่(2), ที่พัก/โรงแรม(1), อู่ซ่อมรถ(1), ตู้ ATM(1)","ไดนาสตี้ ไทล์ท้อป สาขา ตราด, โกลบอลเฮ้าส์ ตราด, AVADA HOTEL, ห้างหุ้นส่วนจำกัด เอส.อี. การาจ, ติดตั้งแอร์, ขนมถ้วย คุณลุง อร่อย, ATM กรุงไทย ยืนยันตัวตน (EDC) บมจ.สยามโกลบอลเฮ้าส์ (ตราด), LaMayon coffee สาขาตราด, ร้านทำเบาะมอไซค์, avada coffee"
GH-137,สาขาบ้านตาด,"823 หมู่ที่ 4, ตำบลบ้านจั่น, อำเภอเมืองอุดรธานี อุดรธานี 41000",อุดรธานี,Esan,41000,092-2471328,092-2477528,092-2477628,1160,07:30 น. - 19:00 น.,https://lin.ee/aVGLsYz,https://bit.ly/2QBAqTk,"https://maps.google.com/?q=17.341803,102.8313205",17.341803,102.8313205,ย่านพาณิชย์/ใกล้ห้าง / ย่านค้าวัสดุ/ตกแต่งบ้าน / ย่านชุมชน/ตลาด / ใกล้ปั๊มน้ำมัน / ใกล้ที่พัก/โรงแรม,ทางหลวงแผ่นดินหมายเลข 2 (ทางหลวงแผ่นดิน),"ร้านอาหาร(2), คาเฟ่(2), อู่ซ่อมรถ(2), ร้านของตกแต่งบ้าน(1), ธนาคาร(1), ตู้ ATM(1), ปั๊มน้ำมัน(1)","ฟอร์ด ฑีฆเจริญ, โกลบอลเฮ้าส์ อุดรธานี 2 (บ้านตาด), สน.ปตท. บริษัท อุดรสยามปิโตรเลียม จำกัด, 7-Eleven สาขา PTTOR อุดรสยาม (03805), Café Amazon สาขา บจก.อุดรสยามปิโตรเลียม, ATM K-Bank, PTT Station ปตท.บ้านตาด สถานีบริการน้ำมัน NGV และ EV อุดรสยามปิโตรเลียม, UDtel Hotel Udonthani, PN สะดวกซักอบ, หัวหย๋องกาแฟโบราณ"
GH-138,สาขาพะเยา,889 หมู่ที่ 13 ตำบล/แขวง บ้านต๋อม อำเภอ/เขต เมืองพะเยา จังหวัดพะเยา,พะเยา,Northern,56000,0610186069,0610185769,0610211569,1160,08:00 น. - 19:00 น.,https://lin.ee/5p4Yl51,https://www.facebook.com/GlobalHousePY,"https://maps.google.com/?q=19.206575,99.870881",19.206575,99.870881,ย่านค้าวัสดุ/ตกแต่งบ้าน / ย่านชุมชน/ตลาด / ใกล้ปั๊มน้ำมัน / ใกล้ที่พัก/โรงแรม,ไม่พบข้อมูล,"ที่พัก/โรงแรม(3), ตู้ ATM(2), ร้านของตกแต่งบ้าน(2), ปั๊มน้ำมัน(1), ร้านอาหาร(1), คาเฟ่(1), อู่ซ่อมรถ(1)","ปตท.พะเยา-เชียงราย, ATM กสิกรไทย ปตท.บจก.ฟูแสงเซอร์วิส 2008 (พะเยา), บ้านชานเมือง Baan chan meuang (Hotel), 7-Eleven สาขา PTTOR พะเยา-เชียงราย (08095), ร้านเฟิร์สกาแฟสด พะเยา, ไดนาสตี้ ไทล์ท้อป สาขา พะเยา, Dynasty Ceramic Public Co., Ltd, เมืองทองเวอร์คชอพ, บ้านอิ่มอุ่น รีสอร์ท, M9 Residence"
GH-139,สาขาบุรีรัมย์,"54 หมู่ 16,กระสัง, เมืองบุรีรัมย์ บุรีรัมย์ 31000",บุรีรัมย์,Esan,31000,092-2471334,092-2477534,092-2477634,1160,07:30 น. - 19:00 น.,https://lin.ee/i4RxVGl,https://bit.ly/2U9IrRp,"https://maps.google.com/?q=14.960638,103.049263",14.960638,103.049263,ย่านค้าวัสดุ/ตกแต่งบ้าน / ใกล้ที่พัก/โรงแรม,ไม่พบข้อมูล,"ร้านของตกแต่งบ้าน(1), อู่ซ่อมรถ(1), ร้านฮาร์ดแวร์(1), ที่พัก/โรงแรม(1), ตู้ ATM(1), คาเฟ่(1), บาร์(1)","โกลบอลเฮ้าส์ บุรีรัมย์, ร้านยาพรพันธุ์เภสัช, บริษัท 9 เอ็นจิเนียร์ จำกัด (ตรวจแก๊ส บุรีรัมย์ - ตรอ. 9 เอ็นจิเนียร์ ), ไทวัสดุ บุรีรัมย์, โฮมสเตย์และลานกางเต้นท์ของมิสเตอร์เขียว, ATM ธนาคารกรุงไทย บมจ.สยามโกลบอลเฮ้าส์ (บุรีรัมย์), La Mayon coffee สาขาบุรีรัมย์, ติดตั้งแอร์, โรงรับจำนำมีทรัพย์ สาขาแยกกระสังเยื้องดูโฮม, L&M บาร์ จุดนัดพบ"
GH-140,สาขาปราณบุรี,1441 หมู่ที่ 2 ตำบลวังก์พง อำเภอปราณบุรี จังหวัดประจวบคีรีขันธ์ 77120,ประจวบคีรีขันธ์,Western,77120,093-3245938,093-3296838,098-2579738,1160,08:00 น. - 19:00 น.,https://lin.ee/kpsNeWJ,https://bit.ly/3abMNgu,"https://maps.google.com/?q=12.401092,99.925442",12.401092,99.925442,ย่านค้าวัสดุ/ตกแต่งบ้าน / ย่านชุมชน/ตลาด / ใกล้สถานศึกษา / ใกล้ปั๊มน้ำมัน,ไม่พบข้อมูล,"ตู้ ATM(3), อู่ซ่อมรถ(3), คาเฟ่(2), ร้านของตกแต่งบ้าน(1), ร้านอาหาร(1), โรงเรียน(1), ปั๊มน้ำมัน(1)","ATM ธ.ไทยพาณิชย์ ปั๊ม ESSO ปราณบุรี (บริษัท เพชรเกษมฐิติพร), โกลบอลเฮ้าส์ ปราณบุรี, ร้านอาหาร, โรงเรียนรักษ์วิทยา Rakwittaya School, ปั๊มน้ำมันเชลล์ เขาน้อย, ออโต้ประดับยนต์ ปราณบุรี |เครื่องเสียง|จอเเอนดรอนด์|ฟิล์มรถยนต์ฟิล์มอาคาร|ไฟหน้าLED ศูนย์ติดตั้งมาตรฐานครบวงจร, ตู้เอทีเอ็ม ธนาคารธนชาต, SIRIN PROPERTY, อัญตาคาเฟ่, ร้าน ยนต์สินปราณบุรี"
GH-141,สาขาเทพารักษ์,76/12 หมู่ที่ 3 ตำบลบางพลีใหญ่ อำเภอบางพลี จังหวัดสมุทรปราการ 10540,สมุทรปราการ,BKK&Metro,10540,093-1378055,093-1347155,,1160,07:30 น. - 20:00 น.,https://lin.ee/vTRYZbU,https://bit.ly/FB-GBH-TP,"https://maps.google.com/?q=13.6086698,100.6808303",13.6086698,100.6808303,ย่านชุมชน/ตลาด / ใกล้โรงพยาบาล,ถนน เทพารักษ์ (ถนน),"ร้านอาหาร(1), โรงพยาบาล(1), อู่ซ่อมรถ(1)","Surapon Nichirei Foods Co.,LTD., โรงพยาบาลบางนา​ 5, เอโทล มัลดีฟส์ บีช ศรีนครินทร์-หนามแดง, Toyota Nakornthon (Theparak) - โตโยต้า นครธน (เทพารักษ์), บริษัท เอ็ม-ริช คอร์ปอเรชั่น จำกัด, หมู่ 3"
GH-142,สาขาหนองบัวลำภู,"240 หมู่ที่ 9, หนองบัว, เมืองหนองบัวลำภู, หนองบัวลำภู 39000",หนองบัวลำภู,Esan,39000,092-2471332,092-2477532,092-2477632,1160,08:00 น. - 19:00 น.,https://lin.ee/3WTrXPZ,https://bit.ly/2xfSdbP,"https://maps.google.com/?q=17.183129,102.437559",17.183129,102.437559,ย่านค้าวัสดุ/ตกแต่งบ้าน / ย่านชุมชน/ตลาด / ใกล้ปั๊มน้ำมัน,ไม่พบข้อมูล,"ร้านอาหาร(3), ปั๊มน้ำมัน(1), วัด/ศาสนสถาน(1), ร้านของตกแต่งบ้าน(1), ธนาคาร(1), ตู้ ATM(1), คาเฟ่(1)","PTT Station ปตท.หนองบัวลำภู 1 (น้ำมัน+EV) (ห้างหุ้นส่วนจำกัดกิจเจริญปิโตรเลียม), วัดอัครเทวดามีคาแอล หนองบัวลำภู, ห้างหุ้นส่วนจำกัด น้ำดื่มสายฝน2013, โกลบอลเฮ้าส์ หนองบัวลำภู, ATM กสิกรไทย เซเว่นฯ ปตท.หนองบัวลำภู 1, 7-Eleven สาขา PTTOR หนองบัวลำภู (07203), อลิอันซ์ อยุธยา (สนง.ตัวแทนคุณณัฐชา วงศ์พนากร) จังหวัดหนองบัวลำภู, สถานีเดินรถนครชัยแอร์ หนองบัวลำภู, ก๋วยเตี๋ยวดาบนาค บ้านสวนริมพะเนียง, ATM กรุงไทย ยืนยันตัวตน (EDC) บมจ.สยามโกลบอลเฮ้าส์ (หนองบัวลำภู)"
GH-144,สาขาสมุทรสงคราม,99/1 หมู่ 11 ตำบล ลาดใหญ่ อำเภอ เมือง จังหวัด สมุทรสงคราม 75000,สมุทรสงคราม,Western,75000,0980976642,0980978242,0933246942,1160,08:00 น. - 19:00 น.,https://lin.ee/2QJg3NA,https://bit.ly/3af7YOI,"https://maps.google.com/?q=13.436485,100.031462",13.436485,100.031462,ย่านค้าวัสดุ/ตกแต่งบ้าน / ย่านชุมชน/ตลาด / ใกล้ปั๊มน้ำมัน,ไม่พบข้อมูล,"คาเฟ่(2), ตู้ ATM(2), อู่ซ่อมรถ(2), ร้านของตกแต่งบ้าน(1), ปั๊มน้ำมัน(1), ร้านอาหาร(1)","โกลบอลเฮ้าส์ สมุทรสงคราม, Coffee & Factory, เอกชัยออยล์, ศาลเยาวชนและครอบครัวจังหวัดสมุทรสงคราม, ATM ธนาคารกรุงไทย, ATM กรุงไทย ยืนยันตัวตน (EDC) บมจ.สยามโกลบอลเฮ้าส์ (สมุทรสงคราม), ช่างตี๋เซอร์วิสเเอร์, บ.บุญเหลือ อะไหล่ครับ, Mayang The café, อู่เอ"
GH-145,สาขาพระนครศรีอยุธยา,50/3 หมู่ที่ 5 ตำบลบ้านกรด อำเภอบางปะอิน จังหวัดพระนครศรีอยุธยา 13160,พระนครศรีอยุธยา,Central,13160,0610197856,0610197956,0610196756,1160,07:30 น. - 20:00 น.,https://lin.ee/hNLfxK,https://bit.ly/FB-GBH-AY,"https://maps.google.com/?q=14.319276008125248,100.6143061813618",14.319276008125248,100.6143061813618,ย่านพาณิชย์/ใกล้ห้าง / ย่านค้าวัสดุ/ตกแต่งบ้าน / ย่านชุมชน/ตลาด / ใกล้ที่พัก/โรงแรม,ไม่พบข้อมูล,"ธนาคาร(3), ร้านของตกแต่งบ้าน(2), ตู้ ATM(2), ที่พัก/โรงแรม(1), โรงภาพยนตร์(1), เบเกอรี่(1), ซูเปอร์มาร์เก็ต(1)","โรงแรม แอท อยุธยา, ATM กสิกรไทย สน.ปตท.สาขาบางปะอิน, แสงทองเฟอร์นิเจอร์คอนเซ็ปต์โฮมแอนด์ออฟฟิต, ราชเทวีคลินิก @อยุธยา, เมเจอร์ ซีนีเพล็กซ์ บิ๊กซี อยุธยา, ATM กสิกรไทย ปั๊มน้ำมันบางจาก สายเอเซีย 2, มิตซูอยุธยา (ไทยธาดา) (สาขาสายเอเซีย), KT OPTIC ร้านแว่นตา ศูนย์เลนส์โปรเกรสซีฟ สาขา บิ๊กซี อยุธยา (Optical shop Progressive Lens Center), ธนาคารกรุงไทย สาขาบิ๊กซี อยุธยา, ร้านมิสเตอร์ โดนัท"
GH-146,สาขานครนายก,86/40 หมู่ที่ 10 ต.พรหมณี อ.เมืองนครนายก จ.นครนายก 26000,นครนายก,Central,26000,092-2471335,081-8211335,081-3724335,1160,08:00 น. - 19:00 น.,https://lin.ee/5GOP5Aw,https://bit.ly/2QDvJbr,"https://maps.google.com/?q=14.219933,101.190183",14.219933,101.190183,ย่านค้าวัสดุ/ตกแต่งบ้าน / ย่านชุมชน/ตลาด / ใกล้สถานศึกษา / ใกล้ปั๊มน้ำมัน / ใกล้ที่พัก/โรงแรม,ไม่พบข้อมูล,"ปั๊มน้ำมัน(3), ร้านของตกแต่งบ้าน(2), คาเฟ่(2), ที่พัก/โรงแรม(2), ร้านอาหาร(1), ร้านอิเล็กทรอนิกส์(1), โรงเรียน(1)","ห้างหุ้นส่วนจำกัด ป.เฮงนครนายกบริการ, บริษัท นครนายกอีซูซุเซลส์ จำกัด (สาขาอำเภอเมือง / สำนักงานใหญ่ ), โกลบอลเฮ้าส์ นครนายก, ปตท.นครนายก (น้ำมัน+EV) (ห้างหุ้นส่วนจำกัดต.เฮงนครนายก), คาเฟ่ อเมซอน, 7-Eleven สาขา PTTOR นครนายก (03928), ระเบียงวิว รีสอร์ท นครนายก, สำนักงานประกันสังคมจังหวัดนครนายก, ไดนาสตี้ ไทล์ท้อป สาขา นครนายก, หจก.อ้น อินเตอร์เทค"
GH-150,สาขาปทุมธานี,1/88 ม.3 ต.บางโพธิ์เหนือ อ.สามโคก จ.ปทุมธานี 12160,ปทุมธานี,BKK&Metro,12160,092-2471339,063-1931339,063-2721339,1160,07:30 น. - 20:00 น.,https://lin.ee/hrd3nDw,https://bit.ly/2WuIkl4,"https://maps.google.com/?q=14.036115,100.5217933",14.036115,100.5217933,ย่านค้าวัสดุ/ตกแต่งบ้าน / ย่านชุมชน/ตลาด / ใกล้สถานศึกษา,ไม่พบข้อมูล,"ตู้ ATM(4), โรงเรียน(2), ร้านของตกแต่งบ้าน(2), ร้านอาหาร(1), อู่ซ่อมรถ(1)","โรงเรียนบางโพธิ์เหนือ, โกลบอลเฮ้าส์ ปทุมธานี, หจก. ประเสริฐ เฮลท์แคร์ พลัส, 7-Eleven สาขา สามโคก จุด 2 (09758), Watzshop Brake Pads, ATM ธ.ไทยพาณิชย์ อาคารพาณิชย์ข้าง 7-11, บ้านกรองน้ำ ปทุมธานี (แยกสันติสุข), โรงเรียนวิภารัตน์, แว่นท็อปเจริญ สาขา แม็คโคร ปทุมธานี, ATM SCB Bank"
GH-151,สาขาศาลายา,8/8 หมู่ที่ 1 ตำบลทรงคนอง อำเภอสามพราน จังหวัดนครปฐม 73210,นครปฐม,BKK&Metro,73210,062-1981340,062-1981240,062-1981640,1160,07:30 น. - 20:00 น.,https://lin.ee/492vudL,https://bit.ly/2J4PVyN,"https://maps.google.com/?q=13.786507,100.264205",13.786507,100.264205,ย่านค้าวัสดุ/ตกแต่งบ้าน / ย่านชุมชน/ตลาด / ใกล้ปั๊มน้ำมัน,ไม่พบข้อมูล,"ร้านของตกแต่งบ้าน(3), คาเฟ่(3), ธนาคาร(2), ร้านอาหาร(1), ตู้ ATM(1), ปั๊มน้ำมัน(1), อู่ซ่อมรถ(1)","โกลบอลเฮ้าส์ ศาลายา, โตโยต้า ดิสคัฟเวอรี่, บ้านใร่กาแฟ ถ.บรมราชชนนี, แกลเลอรี ศาลายา, After the Rain Coffee & Gallery, แก้วฟ้าตุ๊กตา, Somkaew, ATM SCB Bank, PTT Station ปตท.จิฟฟี่ นครปฐม-ปิ่นเกล้า กม.26 (น้ำมัน+EV), บีควิก สาขาไทวัสดุศาลายา"
GH-152,สาขานครศรีธรรมราช,100/1 หมู่ 5 ตำบลปากพูน อำเภอเมืองนครศรีธรรมราช จังหวัดนครศรีธรรมราช 80000 ,นครศรีธรรมราช,Southern,80000,0610286845,061 028 0945,061-0284045,1160,08:00 น. - 19:00 น.,https://lin.ee/wOkwRCZ,https://bit.ly/2QAoCAE,"https://maps.google.com/?q=8.466836,99.961961",8.466836,99.961961,ย่านค้าวัสดุ/ตกแต่งบ้าน / ย่านชุมชน/ตลาด / ใกล้สถานศึกษา,ถนน บ้านสวนจันทร์ (ถนน),"ร้านของตกแต่งบ้าน(2), ร้านล้างรถ(2), ร้านอาหาร(2), คาเฟ่(2), วัด/ศาสนสถาน(1), โรงเรียน(1), ตู้ ATM(1)","มัสยิดนูรุ้ลฮิดายะห์, บริษัท บวรมอเตอร์ จำกัด, โกลบอลเฮ้าส์ นครศรีธรรมราช, Index Living Mall Nakhon Si Thammarat, นครคาร์แคร์, มณีวัตรโภชนา (a la carte aka Pikachu) x ซาลาเปา, โรงเรียนอำมาตย์พิทยานุสรณ์, SP Car Detailing, คลินิกรักษ์สุขภาพการแพทย์แผนไทย การนวดไทย, Nakhon Si IVF คลินิกหมอรสธรรม รักษาผู้มีบุตรยาก นครศรีไอวีเอฟ"
GH-153,สาขาบึงกาฬ,328 หมู่ที่ 10 ตำบลบึงกาฬ อำเภอเมืองบึงกาฬ จังหวัดบึงกาฬ 38000,บึงกาฬ,Esan,38000,081-7688437,063-2173137,081-8016437,1160,08:00 น. - 19:00 น.,https://lin.ee/dMug3Yu,https://bit.ly/3bcEQaM,"https://maps.google.com/?q=18.343619,103.640721",18.343619,103.640721,ย่านค้าวัสดุ/ตกแต่งบ้าน / ย่านชุมชน/ตลาด / ใกล้สถานศึกษา / ใกล้ที่พัก/โรงแรม,ไม่พบข้อมูล,"ร้านอาหาร(3), ที่พัก/โรงแรม(3), ร้านของตกแต่งบ้าน(1), สถานีตำรวจ(1), โรงเรียน(1), ตู้ ATM(1), ร้านเสื้อผ้า(1)","ร้านอาหารคลองสำราญ, โกลบอลเฮ้าส์ บึงกาฬ, กองร้อยตำรวจตระเวนชายแดนที่ 244, โรงเรียนบ้านแสนสำราญ, หมู่บ้านคาวบอยแกรนด์โฮม, ATM กรุงไทย ยืนยันตัวตน (EDC) บมจ.สยามโกลบอลเฮ้าส์ (บึงกาฬ), ร้านแสนอุบล, ร้านอิ่มเพลิน, พีอาร์ สกรีน บ้านสกรีนเสื้อ, คานารีสอร์ท บึงกาฬ (Cana resort)"
GH-154,สาขาสุราษฎร์ธานี,เลขที่ 17/5 หมู่ 2 ถนนเลี่ยงเมือง ตำบลบางกุ้ง อำเภอเมืองสุราษฎร์ธานี จังหวัดสุราษฎร์ธานี 84000,สุราษฎร์ธานี,Southern,84000,062-1980944,062-1976244,061-4212144,1160,07:30 น. - 19:00 น.,https://lin.ee/cBUUMg7,https://bit.ly/3ac2aW6,"https://maps.google.com/?q=9.159293,99.369469",9.159293,99.369469,ย่านค้าวัสดุ/ตกแต่งบ้าน / ย่านชุมชน/ตลาด,ตำบล บางกุ้ง (ถนน),"อู่ซ่อมรถ(3), คาเฟ่(3), ร้านของตกแต่งบ้าน(1), ตู้ ATM(1), ร้านอาหาร(1)","โกลบอลเฮ้าส์ สุราษฎร์ธานี, เซียงกงสุราษฎร์ธานี, อู่ คงดีช่างยนต์, ซื้อ พรบ.ออนไลน์, บริษัท สุราษฏร์ธานี ฮอนด้า ออโตโมบิล จำกัด, ตู้เอทีเอ็มธนาคารกรุงไทย, Lamayon สุราษฏร์ธานี, La Mayon coffee สาขาสุราษฎร์ธานี, Jhira Phong Kan Chang Garage, 7-Eleven ตาปี สุราษฎร์ (19290)"
GH-155,สาขากาญจนบุรี,116 หมู่ 8 ตำบลแก่งเสี้ยน อำเภอเมืองกาญจนบุรี จังหวัดกาญจนบุรี 71000,กาญจนบุรี,Western,71000,0931408946,0935820546,0931320846,1160,07:30 น. - 19:00 น.,https://lin.ee/oQsCD6r,https://bit.ly/2xhN96u,"https://maps.google.com/?q=14.0657682,99.4937257",14.0657682,99.4937257,ย่านค้าวัสดุ/ตกแต่งบ้าน / ย่านชุมชน/ตลาด / ใกล้ปั๊มน้ำมัน / ใกล้ที่พัก/โรงแรม,ไม่พบข้อมูล,"ร้านอาหาร(2), ร้านอิเล็กทรอนิกส์(2), ที่พัก/โรงแรม(2), ปั๊มน้ำมัน(1), ร้านของตกแต่งบ้าน(1), คาเฟ่(1), ร้านซักรีด(1)","กาญจนบุรี, ร้านครัวบ้านสวน, ที่ทำการไปรษณีย์ แก่งเสี้ยน, ห้างหุ้นส่วนจำกัด สัณหกิจ การโยธา, 7-Eleven สาขา PTTOR แก่งเสี้ยน (02080), PTT Station ปตท.แยกแก่งเสี้ยน (น้ำมัน+EV) ประสิทธิ์บริการ, โกลบอลเฮ้าส์ กาญจนบุรี, คาเฟ่ อเมซอน, โรงงานซักผ้า Clean BY AMMA, หมู่บ้านเดอะริชกาญจน์ : The Rich Kan Private Residence"
GH-156,สาขาสิงห์บุรี,เลขที่ 68 หมู่ที่ 4 ตำบลต้นโพธิ์ อำเภอเมืองสิงห์บุรี จังหวัดสิงห์บุรี  16000,สิงห์บุรี,Central,16000,098-0979641,098-0978241,"098-0978241 , 098-0976530",1160,08:00 น. - 19:00 น.,https://lin.ee/en8wmDf,https://bit.ly/3aacM8b,"https://maps.google.com/?q=14.8727254,100.3959441",14.8727254,100.3959441,ย่านค้าวัสดุ/ตกแต่งบ้าน / ย่านชุมชน/ตลาด,ไม่พบข้อมูล,"ร้านอาหาร(3), ร้านของตกแต่งบ้าน(2), ตู้ ATM(1), คาเฟ่(1)","โกลบอลเฮ้าส์ สิงห์บุรี, สำนักงานสาธารณสุขจังหวัดสิงห์บุรี, สหกรณ์ออมทรัพย์ครูจังหวัดสิงห์บุรี, ร้าน แซ่บนัว, ATM กรุงไทย ยืนยันตัวตน (EDC) บมจ.สยามโกลบอลเฮ้าส์ (สิงห์บุรี), ครัวครูพยุงศรี, FirstFasai กาแฟสด&ข้าวมันไก่, ร้านต่อถุงเท้าสิงห์บุรี, กาแฟสด Tea-Mocca สาขาสิงห์บุรี, เดอ ออเรนจ์ ทีซีเอ็ม คลินิก"
GH-158,สาขายโสธร,364 หมู่ที่ 3 ตำบลตาดทอง อำเภอเมืองยโสธร จังหวัดยโสธร 35000,ยโสธร,Esan,35000,092-2471336,061-4130136,081-7360036,1160,08:00 น. - 19:00 น.,https://lin.ee/xbPCj8D,https://bit.ly/2UaexMU,"https://maps.google.com/?q=15.786390,104.172662",15.786390,104.172662,ย่านพาณิชย์/ใกล้ห้าง / ย่านค้าวัสดุ/ตกแต่งบ้าน / ย่านชุมชน/ตลาด,ไม่พบข้อมูล,"คาเฟ่(2), ร้านของตกแต่งบ้าน(1), ธนาคาร(1), ร้านอาหาร(1), ร้านเสริมสวย(1), ซูเปอร์มาร์เก็ต(1)","โกลบอลเฮ้าส์ ยโสธร, Rider One Motorcycle Cafe Shop, ธนาคารเพื่อการเกษตรและสหกรณ์การเกษตร สาขาพญาแถน, La Mayon coffee, ติดตั้งแอร์, ร้านพ่อพงษ์ข้าวปุ้นซาวยโสธร สาขา2, PEETZ Clinic พีทซ์ คลินิก YASOTHON ยโสธร คลินิกความงาม, Apคิ้วสวย ยโสธร, แสนสุขการพยาบาลและการผดุงครรภ์, แสนสุขคลินิกการพยาบาลและการผดุงครรภ์"
GH-159,สาขาอ่างทอง,99/99 หมู่ 8 ตำบลโพสะ อำเภอเมืองอ่างทอง จังหวัดอ่างทอง 14000,อ่างทอง,Central,14000,061-0289149,061-0292149,061-0293149,1160,08:00 น. - 19:00 น.,https://lin.ee/8OuK9rd,https://bit.ly/398P0Im,"https://maps.google.com/?q=14.577606,100.461742",14.577606,100.461742,ย่านพาณิชย์/ใกล้ห้าง / ย่านค้าวัสดุ/ตกแต่งบ้าน / ย่านชุมชน/ตลาด,ไม่พบข้อมูล,"อู่ซ่อมรถ(3), คาเฟ่(2), ร้านของตกแต่งบ้าน(1), ธนาคาร(1), ซูเปอร์มาร์เก็ต(1), ร้านอาหาร(1)","บางไผ่อะไหล่ยนต์ อ่างทอง, โกลบอลเฮ้าส์ สาขาอ่างทอง, แอมเวย์ ช็อป อ่างทอง, Poppysmiccafe, ร้าน พัฒนายนตการ, สหกรณ์ออมทรัพย์ครูจังหวัดอ่างทอง, บิ๊กซี อ่างทอง, ประพันธ์อะไหล่ยนต์ อ่างทอง, ครัวดำแดง อาหารป่าปลาแม่น้ำ, LaMayon coffee สาขาอ่างทอง"
GH-160,สาขาเลย,เลขที่ 292 หมู่ 6 ตำบลนาอาน อำเภอเมืองเลย จังหวัดเลย 42000,เลย,Esan,42000,0610249050,0610284950,0610281950,1160,08:00 น. - 19:00 น.,https://lin.ee/jktc50Q,https://bit.ly/2JiMJzT,"https://maps.google.com/?q=17.461491,101.727293",17.461491,101.727293,ย่านค้าวัสดุ/ตกแต่งบ้าน / ย่านชุมชน/ตลาด / ใกล้ปั๊มน้ำมัน,ถนน มลิวรรณ (ถนน),"ธนาคาร(3), ตู้ ATM(3), ปั๊มน้ำมัน(1), ร้านของตกแต่งบ้าน(1), ฟิตเนส(1), ร้านอาหาร(1), อู่ซ่อมรถ(1)","PTT Station ปตท.นาอาน (น้ำมัน+EV), ATM กสิกรไทย โรงพยาบาลเมืองเลยราม, ATM กสิกรไทย แอมเวย์ ช็อป สาขาเลย, สหชัย ฟอร์ด เลย, คูโบต้าเมืองเลย, ต๊อด เจริญยนต์, โกลบอลเฮ้าส์ เลย, Siam Commercial Bank Cash Deposit Machine (CDM), สน.ปตท. บจ.พัฒนชัยยนต์, ATM K-Bank"
GH-161,สาขาพัทลุง,"228 หมู่ที่ 10 ตำบลเขาเจียก อำเภอเมืองพัทลุง พัทลุง 93000
",พัทลุง,Southern,93000,093-1376853,093- 3261353,093-3272853,1160,08:00 น. - 19:00 น.,https://lin.ee/vFE4w10,https://bit.ly/FB-GBH-PU,"https://maps.google.com/?q=7.631426,100.064585",7.631426,100.064585,ย่านค้าวัสดุ/ตกแต่งบ้าน / ย่านชุมชน/ตลาด / ใกล้สถานศึกษา,ไม่พบข้อมูล,"ร้านอาหาร(5), อู่ซ่อมรถ(2), ร้านของตกแต่งบ้าน(1), ร้านเสื้อผ้า(1), โรงเรียน(1), คาเฟ่(1), ธนาคาร(1)","โกลบอลเฮ้าส์ พัทลุง, ทณภพเวดดิ้ง, โรงเรียนวัดควนกรวด, ณิชาแซนด์วิช พัทลุง, โรงชาเฟยติ่มซำ, จานเดียวจุก-อาหารตามสั่ง, อู่วโรจน์เซอร์วิส พัทลุง, La Mayon coffee สาขาพัทลุง, ATM ธนาคารกรุงศรีอยุธยา, Get’Hair บ้านผม"
GH-162,สาขาอุตรดิตถ์,159 หมู่ 8 ตำบลป่าเซ่า อำเภอเมืองอุตรดิตถ์ จังหวัดอุตรดิตถ์  53000,อุตรดิตถ์,Northern,53000,0610284048,0610294548,0610288148,1160,08:00 น. - 19:00 น.,https://lin.ee/8KSqtPt,https://bit.ly/2UvKBtu,"https://maps.google.com/?q=17.611239,100.129814",17.611239,100.129814,ย่านค้าวัสดุ/ตกแต่งบ้าน / ย่านชุมชน/ตลาด,ไม่พบข้อมูล,"ร้านอาหาร(3), คาเฟ่(2), ร้านของตกแต่งบ้าน(1)","โกลบอลเฮ้าส์ อุตรดิตถ์, ฟอร์ด อุตรดิตถ์, สยามนิสสัน อุตรดิตถ์, Vending machine​ โกล์​บอล​อุตรดิตถ์​, ติดตั้งแอร์, LaMayon coffee สาขาอุตรดิตถ์, ห้องอาหาร โรงพยาบาลพิษณุเวช อุตรดิตถ์, ฟาร์มนกแก้วสมคิดฟาร์ม, Rest Time สาขา รพ.พิษณุเวช อุตรดิตถ์, Phitsanuloke Motorsales Co., Ltd. @ Uttaradit"
GH-163,สาขาชุมแพ,998 หมู่ที่ 9 ตำบลชุมแพ อำเภอชุมแพ จังหวัดขอนแก่น  40130,ขอนแก่น,Esan,40130,061-024-9851,061-024-8951,061-0249351,1160,08:00 น. - 19:00 น.,https://lin.ee/g0i96Cb,https://bit.ly/2Uqp4CB,"https://maps.google.com/?q=16.555102,102.0753568",16.555102,102.0753568,ย่านค้าวัสดุ/ตกแต่งบ้าน / ย่านชุมชน/ตลาด / ใกล้ปั๊มน้ำมัน / ใกล้ที่พัก/โรงแรม,ถนน มลิวรรณ (ถนน),"ร้านของตกแต่งบ้าน(1), ปั๊มน้ำมัน(1), ที่พัก/โรงแรม(1), คาเฟ่(1), ร้านอาหาร(1), อู่ซ่อมรถ(1)","โกลบอลเฮ้าส์ ชุมแพ, โตโยต้าขอนแก่น สาขามลิวรรณ Toyota Khonkaen (Milwan), ปั้มน้ำมันเชลล์ บจก.พร้อมแอนด์พราวปิโตรเลียม, Western Union, บ้านอูฐรีสอร์ท และบ้านอูฐนวดเพื่อสุขภาพ, La Mayon coffee สาขาชุมแพ, รุ่งทิพย์ คาราโอเกะ, เงินเทอร์โบ สาขาห้วยบง, เพชรออโต้แม็ก"
GH-164,สาขาภูเก็ต,66/49 หมู่ 10 ตำบลฉลอง อำเภอเมืองภูเก็ต จังหวัดภูเก็ต 83130,ภูเก็ต,Southern,83130,0980921363,0990039563,0979505763,1160,08:00 น. - 19:00 น.,https://lin.ee/n5txtAG,https://bit.ly/FB-GBH-PK,"https://maps.google.com/?q=7.825812,98.330412",7.825812,98.330412,ย่านค้าวัสดุ/ตกแต่งบ้าน / ใกล้ปั๊มน้ำมัน / ใกล้ที่พัก/โรงแรม,4028 (ทางหลวง/ถนนหมายเลข),"ที่พัก/โรงแรม(7), ปั๊มน้ำมัน(2), ร้านของตกแต่งบ้าน(1)","Chalong Chalet Resort & Longstay, ZEN Premium, Chalong Oasis Resort & Spa, Tuna Resort, Big Buddha Hillside, ห้าแยกเฟอร์นิเจอร์, โปรเซิร์ฟ, บริษัท สวนพฤกษชาติ ภูเก็ต จำกัด, Chalong Palm Residence, Shell"
GH-166,สาขาแม่สาย,357 หมู่ 11 ตำบลโป่งผา อำเภอแม่สาย  จังหวัดเชียงราย 57130,เชียงราย,Northern,57130,098-6860265,099-0032365,099-0034165,1160,08:00 น. - 19:00 น.,https://lin.ee/Ca65ram,https://bit.ly/FB-GBH-MAS,"https://maps.google.com/?q=20.398310,99.885656",20.398310,99.885656,ย่านพาณิชย์/ใกล้ห้าง / ย่านค้าวัสดุ/ตกแต่งบ้าน / ย่านชุมชน/ตลาด,ไม่พบข้อมูล,"ตู้ ATM(3), เบเกอรี่(2), ร้านขายยา(1), ซูเปอร์มาร์เก็ต(1), ธนาคาร(1), ร้านของตกแต่งบ้าน(1), ร้านอาหาร(1)","ขนส่งแม่สาย, แม่สายเด็นทัล Maesai Dental Clinic, Fascino ร้านขายยา ฟาสซิโน สาขา ข้างแม็คโคร แม่สาย, แม็คโครแม่สาย, ATM K-Bank, ATM กสิกรไทย โลตัส คุ้มค่า แม่สาย, ร้านมิสเตอร์ โดนัท, ร้าน ผึ้งน้อยเบเกอรี่, สำนักงานเทศบาลตำบลเวียงพางคำ, บมจ.สยามโกลบอลเฮ้าส์ (แม่สาย)"
GH-168,สาขาพังโคน,642 หมู่ 1 ตำบลพังโคน อำเภอพังโคน จังหวัดสกลนคร  47160,สกลนคร,Esan,47160,093-3208352,093-3232952,093-3267652,1160,08:00 น. - 19:00 น.,https://lin.ee/yqSdnGZ,https://bit.ly/2J7ArtW,"https://maps.google.com/?q=17.387025,103.73227",17.387025,103.73227,ย่านค้าวัสดุ/ตกแต่งบ้าน / ย่านชุมชน/ตลาด / ใกล้สถานศึกษา / ใกล้ที่พัก/โรงแรม,ไม่พบข้อมูล,"ที่พัก/โรงแรม(2), อู่ซ่อมรถ(2), ร้านของตกแต่งบ้าน(1), มหาวิทยาลัย(1), ร้านอาหาร(1)","โรงแรมพังโคนอินน์, โกลบอลเฮ้าส์ พังโคน, อู่ พัฒนา คาร์แคร์, วิทยาลัยเทคโนโลยีพังโคนพณิชยการ, โคโคนัทแอร์บ้าน อะไหล่แอร์ ช่างแอร์ สาขาพังโคน, ร้านก๋วยเตี๋ยวบ้านเพื่อน, ครัวชาวนา2, ร้านพังโคนแบตเตอรี่ - Phang Khon Battery"
GH-169,สาขาแม่ฮ่องสอน,61 หมู่ 11 ตำบลปางหมู อำเภอเมืองแม่ฮ่องสอน จังหวัดแม่ฮ่องสอน 58000,แม่ฮ่องสอน,Northern,58000,0610186860,0610184960,0610185760,1160,08:00 น. - 19:00 น.,https://lin.ee/5S9BpD6,https://bit.ly/FB-GBH-MH,"https://maps.google.com/?q=19.295397,97.9473573",19.295397,97.9473573,ย่านค้าวัสดุ/ตกแต่งบ้าน / ย่านชุมชน/ตลาด / ใกล้สถานศึกษา / ใกล้ที่พัก/โรงแรม,ไม่พบข้อมูล,"ร้านอาหาร(8), วัด/ศาสนสถาน(2), โรงเรียน(1), ธนาคาร(1), ร้านของตกแต่งบ้าน(1), ที่พัก/โรงแรม(1)","สวนอาหาร ธารฮ่องสอน, โรงเรียนบ้านสบป่อง, ATM ธนาคารกรุงศรีอยุธยา, โกลบอลเฮ้าส์ แม่ฮ่องสอน, ไม้บอร์ด เฌอร่าใกล้ฉัน โกลบอลเฮ้าส์ แม่ฮ่องสอน, บ้านทวีสุข - One-Bedroom Apartment, กุ้งเผา เว้ยเห้ย, เนมคอนสตรัคชั่นแอนด์ซิสเท็ม, ร้านลับ(เกี๊ยวปั้นสดหนูมิลิน), แค้มป์คิว"
GH-171,สาขาโชคชัย,363 หมู่ที่ 12 ตำบลโชคชัย อำเภอโชคชัย จังหวัด นครราชสีมา  30190,นครราชสีมา,Esan,30190,061-0192554,061-0198554,061-0200654,1160,08:00 น. - 19:00 น.,https://lin.ee/soGrcTZ,https://bit.ly/FB-GBH-CI,"https://maps.google.com/?q=14.75121,102.163115",14.75121,102.163115,ย่านพาณิชย์/ใกล้ห้าง / ย่านค้าวัสดุ/ตกแต่งบ้าน / ย่านชุมชน/ตลาด / ใกล้ปั๊มน้ำมัน / ใกล้ที่พัก/โรงแรม,ไม่พบข้อมูล,"ปั๊มน้ำมัน(2), อู่ซ่อมรถ(2), ที่พัก/โรงแรม(1), ห้างสรรพสินค้า(1), ร้านของตกแต่งบ้าน(1), ตู้ ATM(1), คาเฟ่(1)","โรงแรม ที่พัก ปลายนา รีสอร์ท โชคชัย นครราชสีมา โคราช, คาลเท็กซ์ สาขาดาว ช.เจริญ บริการ, PT Gasstation, ตลาดคลังมาร์เช่-Klung Marche, โกลบอลเฮ้าส์ โชคชัย, ธงชัยการช่าง ท่อไอเสีย หม้อน้ำ, ATM SCB (am GlobelHouse), BrewtheWater-บรูเดอะวอเทอ调味水, วี ออร์โต้คาร์, โจ.คิ้วบัว"
GH-172,สาขาชัยนาท,798 หมู่ที่ 5 บ้านกล้วย อำเภอเมืองชัยนาท ชัยนาท 17000,ชัยนาท,Central,17000,092-7623657,080-8804657,080-8804657,1160,07:30 น. - 20:00 น.,https://lin.ee/txoFb5d,https://bit.ly/FB-GBH-CN,"https://maps.google.com/?q=15.221863,100.173040",15.221863,100.173040,ย่านค้าวัสดุ/ตกแต่งบ้าน / ย่านชุมชน/ตลาด / ใกล้ปั๊มน้ำมัน / ใกล้ที่พัก/โรงแรม,ถนน พหลโยธิน (ถนน),"ร้านของตกแต่งบ้าน(2), คาเฟ่(2), ที่พัก/โรงแรม(1), ธนาคาร(1), ปั๊มน้ำมัน(1), ร้านอาหาร(1), ตู้ ATM(1)","แฟนตาซี รีสอร์ท Fantasy Resort, โกลบอลเฮ้าส์ ชัยนาท, ATM ธนาคารกรุงศรีอยุธยา, PTT Station ปตท.สวนนกชัยนาท (น้ำมัน+EV) (บจ.P.O.A.ปิโตรเลียม ชัยนาท), 7-Eleven สาขา PTTOR สวนนกชัยนาท (14993), Café Amazon สาขา ปตท.สวนนกชัยนาท (DD2993), ATM กรุงไทย บมจ.สยามโกลบอลเฮ้าส์ (ชัยนาท), La Mayon coffee สาขาชัยนาท, แผนกเครื่องใช้ไฟฟ้า โกลบอลเฮ้าส์ ชัยนาท, Nissan Phoenix นิสสันฟีนิกซ์ ชัยนาท ตัวแทนจำหน่ายอย่างเป็นทางการ"
GH-173,สาขาฝาง,222 หมู่ 2 ตำบลสันทราย อำเภอฝาง จังหวัดเชียงใหม่ 50110,เชียงใหม่,Northern,50110,062-4390559,062-2360559,062-2360559,1160,08:00 น. - 19:00 น.,https://lin.ee/BSPuq0e,https://bit.ly/FB-GBH-FAN,"https://maps.google.com/?q=19.899501,99.194725",19.899501,99.194725,ย่านค้าวัสดุ/ตกแต่งบ้าน / ย่านชุมชน/ตลาด / ใกล้ที่พัก/โรงแรม,ไม่พบข้อมูล,"ร้านของตกแต่งบ้าน(2), ที่พัก/โรงแรม(2), อู่ซ่อมรถ(2), ร้านอาหาร(2), ธนาคาร(1)","โกลบอลเฮ้าส์ ฝาง, ATM ธนาคารกรุงศรีอยุธยา, พีเอส โฮม ฝาง - P.S HOME, ดีดี การช่าง, สวนอาหาร กาสะลอง, ออฝางการยาง, โรงแรมพาสดาว, โรงแว็กซ์ส้ม นิวมนต์ชัย 5, ส.โบรกเกอร์ประกันภัย อำเภอฝาง จังหวัดเชียงใหม่, สห อีเลคทริค เซ็นเตอร์ สาขาฝาง"
GH-174,สาขาด่านขุนทด ,408 หมู่ที่ 4 ตำบลด่านขุนทด อำเภอด่านขุนทด  จังหวัดนครราชสีมา  30210,นครราชสีมา,Esan,30210,0933205158,0933205258,0935781258,1160,08:00 น. - 19:00 น.,https://lin.ee/2shsole,https://bit.ly/FB-GBH-DKT,"https://maps.google.com/?q=15.184967,101.755887",15.184967,101.755887,ย่านค้าวัสดุ/ตกแต่งบ้าน / ย่านชุมชน/ตลาด / ใกล้สถานศึกษา,ถนน ชัยภูมิ - สีคิ้ว (ถนน),"ร้านอาหาร(4), อู่ซ่อมรถ(2), โรงเรียน(1), ร้านของตกแต่งบ้าน(1)","ร้านต้นเครื่อง​ Resort & Restaurant, ครัวดอยช้าง, องค์การบริหารส่วนตำบลด่านขุนทด, โรงเรียนบ้านจั่นโคกรักษ์, โกลบอลเฮ้าส์ ด่านขุนทด, เสริมการไฟฟ้า (สาขาด่านขุนทด), วัชระการยาง, ธิดา หมู กระทะ, ครัวยอร์จ, ร้านสดใสไดนาโม 2018"
GH-175,สาขาสตูล, 622 หมู่ 1 ตำบลบ้านควน  อำเภอเมืองสตูล. จังหวัดสตูล 91140,สตูล,Southern,91140,0985847262,0621950262,0621952062,1160,08:00 น. - 19:00 น.,https://lin.ee/4TqpwuD,https://bit.ly/FB-GBH-SL,"https://maps.google.com/?q=6.679609,100.061421",6.679609,100.061421,ย่านพาณิชย์/ใกล้ห้าง / ย่านค้าวัสดุ/ตกแต่งบ้าน / ย่านชุมชน/ตลาด / ใกล้สถานศึกษา / ใกล้ที่พัก/โรงแรม,ไม่พบข้อมูล,"ร้านอาหาร(6), ร้านของตกแต่งบ้าน(2), ธนาคาร(1), ตู้ ATM(1), วัด/ศาสนสถาน(1), ร้านเสริมสวย(1), ที่พัก/โรงแรม(1)","สำนักงานรังสิมันต์การบัญชี, ATM ธนาคารกรุงศรีอยุธยา, โกลบอลเฮ้าส์ สตูล, บมจ.สยามโกลบอลเฮ้าส์ (สตูล), กะต้ายกซด, มัสยิดลูโบ๊ะบาตู, ก.ฟาริสาความงาม ศูนย์บริการสุขภาพและความงามสตูล, Notting Hill ลูโบ๊ะบาตู, เอสทีอะไหล่แอร์ แอนด์ พาร์ท 2008, นอรีรสดีตามสั่ง&ก๋วยเตี๋ยวเนื้อเปื่อยไก่ตุ๋น"
GH-176,สาขาเดชอุดม,ที่อยู่ 92 หมู่ที่ 14 ตำบล/แขวง เมืองเดช อำเภอ/เขต เดชอุดม จังหวัด อุบลราชธานี 34160,อุบลราชธานี,Esan,34160,0981-036768,0981-034768,0981-012468,1160,08:00 น. - 19:00 น., https://lin.ee/3S5ArOHyl,https://www.facebook.com/GlobalHouseDUD/,"https://maps.google.com/?q=14.913541,105.057459",14.913541,105.057459,ย่านค้าวัสดุ/ตกแต่งบ้าน / ย่านชุมชน/ตลาด / ใกล้โรงพยาบาล / ใกล้ที่พัก/โรงแรม,ไม่พบข้อมูล,"คาเฟ่(3), อู่ซ่อมรถ(3), ที่พัก/โรงแรม(1), โรงพยาบาล(1), ร้านของตกแต่งบ้าน(1), ธนาคาร(1), ร้านอาหาร(1)","ร้านกาแฟสดออร์แกนิค เอ็มวิน คอฟฟี้ - สาขาเดชอุดม, บริษัท ไทยสมุทรประกันชีวิต จำกัด สาขา เดชอุดม, หอพักมีสุขเพลส เดชอุดม อุบลราชธานี, สำนักงานประกันสังคมจังหวัดอุบลราชธานี สาขาเดชอุดม, สำนักงานขนส่งจังหวัดอุบลราชธานี สาขาอำเภอเดชอุดม, เคโมดิฟาย เดชอุดม, โรงพยาบาลสมเด็จพระยุพราชเดชอุดม, La Mayon coffee สาขาเดชอุดม, โกลบอลเฮ้าส์ เดชอุดม, ATM ธนาคารกรุงศรีอยุธยา"
GH-177,สาขากันทรลักษ์ ,333 หมู่ 8 ตำบลหนองหญ้าลาด อำเภอกันทรลักษ์  จังหวัดศรีสะเกษ 33110,ศรีสะเกษ,Esan,33110,0989797464,0986010064,0988348764,1160,08:00 น. - 19:00 น.,https://lin.ee/og5f0nW,https://bit.ly/FB-GBH-KTL,"https://maps.google.com/?q=14.661251,104.621009",14.661251,104.621009,ย่านค้าวัสดุ/ตกแต่งบ้าน / ย่านชุมชน/ตลาด / ใกล้สถานศึกษา / ใกล้ที่พัก/โรงแรม,ไม่พบข้อมูล,"โรงเรียน(2), อู่ซ่อมรถ(2), ร้านของตกแต่งบ้าน(2), ตู้ ATM(1), ธนาคาร(1), ร้านอาหาร(1), ที่พัก/โรงแรม(1)","โรงเรียนบ้านกระบี่, บริษัท สินมั่นคงประกันภัย จำกัด (มหาชน) @ อู่ทวีการช่าง, โรงเรียนกันทรลักษ์ธรรมวิทย์, บมจ.สยามโกลบอลเฮ้าส์ (กันทรลักษ์), โกลบอลเฮ้าส์ สาขากันทรลักษ์, หจก. ธงไทย คอนกรีต, ATM ธนาคารกรุงศรีอยุธยา, แฟรช, ภัชราภรณ์เฟอร์นิเจอร์, อู่ช่างเต้ย"
GH-178,สาขานางรอง,เลขที่ 1/89 ถ. โชคชัย - เดชอุดม ตำบลถนนหัก อำเภอนางรอง จังหวัดบุรีรัมย์ 31110,บุรีรัมย์,Esan,31110,(093)1313561,(093)1316361,(093)1309461,1160,08:00 น. - 19:00 น.,https://lin.ee/kdOtVha,https://bit.ly/FB-GBH-NAR,"https://maps.google.com/?q=14.6307737,102.830385",14.6307737,102.830385,ย่านค้าวัสดุ/ตกแต่งบ้าน / ย่านชุมชน/ตลาด / ใกล้สถานศึกษา,ไม่พบข้อมูล,"ร้านของตกแต่งบ้าน(2), อู่ซ่อมรถ(2), โรงเรียน(1), ตู้ ATM(1), คาเฟ่(1), ธนาคาร(1), ร้านอาหาร(1)","โรงเรียนบ้านถนนหัก(เพียรประจงวิทยา)7:55, ATM ธนาคารกสิกรไทย ATM Kasikorn Bank, Dynasty Ceramic Public Co., Ltd, หจก.TNF. คลังทรัพย์, บริษัท เอสพีอาร์ 99 (SPR 99), ATM ธนาคารกรุงศรีอยุธยา, ร้านยาง, อ่างเก็บน้ำทุ่งแหลม, ลาบเดชอุดม, สหะพืชผล ลิสซิ่ง สาขานางรอง"
GH-179,สาขาไทรน้อย,88  หมู่ที่ 4  ตำบลไทรน้อย อำเภอไทรน้อย นนทบุรี 11150,นนทบุรี,BKK&Metro,11150,(061)2703667,(063)1970767,(061)2708967,1160,07:30 น. - 20:00 น.,https://lin.ee/pfhNdm1,https://bit.ly/FB-GBH-SAN,"https://maps.google.com/?q=13.975322,100.334857",13.975322,100.334857,ย่านพาณิชย์/ใกล้ห้าง,ไม่พบข้อมูล,"ตู้ ATM(2), ซูเปอร์มาร์เก็ต(1), คาเฟ่(1), ร้านเสริมสวย(1), ธนาคาร(1)","Pongamorn Detective Ltd., Part, ATM SCB Bank, ร้านหลีบริการ น้ำแข็ง - ของชำ, Kudsan Bakery & Coffee, Beauty 4 Sales Shop, บ้านคุณหมอ (รักษาสัตว์) ไทรน้อย, ATM Bangkok Bank, บ้านพฤกษา 10 ไทรน้อย (Baan Pruksa 10 Sai Noi), ATM ธนาคารกรุงศรีอยุธยา"
GH-182,สาขาหนองหาน, 8 หมู่ 19 อำเภอหนองหาน อุดรธานี 41130,อุดรธานี,Esan,41130,0630218974,0652390574,0610199274,1160,08:00 น. - 19:00 น.,https://lin.ee/nB6xphX,https://www.facebook.com/globalhousenha,"https://maps.google.com/?q=17.36231,103.11523",17.36231,103.11523,ย่านพาณิชย์/ใกล้ห้าง / ย่านชุมชน/ตลาด / ใกล้สถานศึกษา / ใกล้โรงพยาบาล,ไม่พบข้อมูล,"ตู้ ATM(3), ร้านอาหาร(2), ซูเปอร์มาร์เก็ต(1), โรงเรียน(1), สถานีตำรวจ(1), อู่ซ่อมรถ(1), โรงพยาบาล(1)","โลตัส โกเฟรช ซูเปอร์มาร์เก็ต หนองหาน, ต้นยาเภสัช Tonyaphaesud (Drugstore), Bangkok Bank Cash Deposit Machine (CDM), โรงเรียนอนุบาลหนองหานวิทยายน, บมจ.ศรีสวัสดิ์ พาวเวอร์ 1979 (สาขาหนองหาน), สถานีตำรวจภูธรหนองหาน, บ้านข้าวหอม, TDRaceShop, สำนักงานสาธารณสุขอำเภอหนองหาน, ATM K-Bank"
GH-183,สาขากระทุ่มแบน ,107/1 หมู่ที่ 2 ตำบลคลองมะเดื่อ อำเภอกระทุ่มแบน จังหวัดสมุทรสาคร 74110,สมุทรสาคร,BKK&Metro,74110,061-0198666,061-0202666,061-0203666,1160,07:30 น. - 20:00 น.,https://lin.ee/hSNBKJW,https://bit.ly/FB-GBH-KTB,"https://maps.google.com/?q=13.655551,100.274362",13.655551,100.274362,ย่านค้าวัสดุ/ตกแต่งบ้าน / ย่านชุมชน/ตลาด / ใกล้สถานศึกษา / ใกล้ปั๊มน้ำมัน,ไม่พบข้อมูล,"ตู้ ATM(3), ร้านอาหาร(2), ธนาคาร(2), ปั๊มน้ำมัน(1), โรงเรียน(1), ร้านเสื้อผ้า(1), เบเกอรี่(1)","ก๋วยเตี๋ยวรสเด็ดกระทุ่มแบน, ธนาคารไทยพาณิชย์ สาขาโลตัสกระทุ่มแบน, ปั๊มน้ำมันพีที กระทุ่มแบน3 (กาแฟพันธุ์ไทย, Max Mart), ATM กสิกรไทย เซเว่นฯ ปตท.คลองมะเดื่อ สมุทรสาคร, โรงเรียนเทศบาลศรีบุณยานุสสรณ์, Mc jeans, Kasikorn Bank Cash Deposit Machine (CDM), The Pizza Company Lotus กระทุ่มแบน, S&P โลตัส กระทุ่มแบน, Bangkok Bank Cash Deposit Machine (CDM)"
GH-184,สาขาพยัคฆภูมิพิสัย,เลขที่ 542 หมู่ที่ 16 ตำบลปะหลาน  อำเภอพยัคฆภูมิพิสัย  มหาสารคาม 44110,มหาสารคาม,Esan,44110,065-2364772,061-0209072,061-0197472,1160,08:00 น. - 19:00 น.,https://lin.ee/ZQXuAZD,http://bit.ly/fb_gbhPYP,"https://maps.google.com/?q=15.509636,103.192487",15.509636,103.192487,ย่านพาณิชย์/ใกล้ห้าง / ใกล้สถานศึกษา / ใกล้ปั๊มน้ำมัน,ไม่พบข้อมูล,"ตู้ ATM(4), โรงเรียน(2), ปั๊มน้ำมัน(2), ธนาคาร(1), ห้างสรรพสินค้า(1), ซูเปอร์มาร์เก็ต(1), ร้านอิเล็กทรอนิกส์(1)","โรงเรียนอนุบาลพยัคฆภูมิพิสัย, โรงเรียนพยัคฆภูมิวิทยาคาร, ATM Krung Thai Bank, ATM Bank for Agriculture and Agricultural Cooperatives, ปั๊มคาลเท็กซ์-เพียวไทย สาขาพยัคฆภูมิพิสัย, PTT Station ปตท.พยัคฆภูมิพิสัย (น้ำมัน+EV) หจก.โชคศิริ ออยล์, ธนาคารออมสิน สาขาพยัคฆภูมิพิสัย, Government Savings Bank Cash Deposit Machine (CDM), ก้องวิทยา, สมานบุ๊คเซนเตอร์พยัคฆ์"
GH-185,สาขากบินทร์บุรี,346 หมู่ที่ 16  ต.เมืองเก่า อ.กบินทร์บุรี จ.ปราจีนบุรี 25240,ปราจีนบุรี,Central,25240,0652379873,0652368673,0610206873,1160,08:00 น. - 19:00 น.,https://lin.ee/p976k9y,http://bit.ly/fb_gbhKBR,"https://maps.google.com/?q=13.986270,101.783141",13.986270,101.783141,ย่านค้าวัสดุ/ตกแต่งบ้าน / ย่านชุมชน/ตลาด / ใกล้ที่พัก/โรงแรม,ไม่พบข้อมูล,"ร้านอิเล็กทรอนิกส์(2), คาเฟ่(2), ที่พัก/โรงแรม(1), ร้านอาหาร(1), ธนาคาร(1), ร้านของตกแต่งบ้าน(1)","ช้างเซอร์วิส, เซเรนิตี้ โฮเทล แอนด์ สปา กบินทร์บุรี, เอ็นพีซีคอมพิวเตอร์, 7-Eleven สาขา PTTOR แยกสามทหาร (08399), Café Amazon สาขา หจก. ผาติวานิช, ATM ธนาคารกรุงศรีอยุธยา, โอ้มิลล์, โกลบอลเฮ้าส์ กบินทร์บุรี"
GH-186,สาขากุฉินารายณ์,เลขที่ 298 หมู่ที่ 15 ตำบลบัวขาว อำเภอกุฉินารายณ์ จังหวัดกาฬสินธุ์,กาฬสินธุ์,Esan,46110,0610212870,0610181570,0610188670,1160,08:00 น. - 19:00 น.,https://lin.ee/VNK5JWN,https://bit.ly/fb_gbhKCN,"https://maps.google.com/?q=16.543486,104.040855",16.543486,104.040855,ย่านพาณิชย์/ใกล้ห้าง / ย่านค้าวัสดุ/ตกแต่งบ้าน / ย่านชุมชน/ตลาด / ใกล้สถานศึกษา / ใกล้ปั๊มน้ำมัน,12 (ทางหลวง/ถนนหมายเลข),"ตู้ ATM(3), ร้านอาหาร(3), ปั๊มน้ำมัน(2), ร้านของตกแต่งบ้าน(2), โรงเรียน(1), มหาวิทยาลัย(1), ร้านอิเล็กทรอนิกส์(1)","PTT Station ปตท.บัวขาว-กุฉินารายณ์ หจก.ยิ่งวัฒนาบัวขาวบริการ, สาขากุฉินารายณ์, โรงเรียนกุฉินารายณ์, 7-Eleven สาขา PTTOR บัวขาวกุฉินารายณ์ (09438), ATM K- Bank, ห้างหุ้นส่วนจำกัด เกรียงศักดิ์ค้าไม้ 1998, วิทยาลัยอาชีวศึกษาไทยเทคเอเชีย, Government Savings Bank Cash Deposit Machine (CDM), ร้านสยาม ไอเอฟ Siamif, ธนาคารออมสิน สาขากุฉินารายณ์"
GH-187,สาขาสมุย,107/60 หมู่ที่ 4 ตำบลแม่น้ำ อำเภอเกาะสมุย จังหวัดสุราษฎร์ธานี 84330,สุราษฎร์ธานี,Southern,84330,0652383476,0651203276,0652370876,1160,08:00 น. - 19:00 น.,https://lin.ee/KKM0Sak,https://www.facebook.com/globalhousesmi/,"https://maps.google.com/?q=9.576757435257424,99.98028923022412",9.576757435257424,99.98028923022412,ย่านค้าวัสดุ/ตกแต่งบ้าน / ย่านชุมชน/ตลาด / ใกล้ที่พัก/โรงแรม,ไม่พบข้อมูล,"ที่พัก/โรงแรม(8), ร้านอาหาร(3), ร้านของตกแต่งบ้าน(2), สวนสาธารณะ(1), วัด/ศาสนสถาน(1), บาร์(1)","แฮร์รี่ บังกะโล แอนด์, Samui Buri Beach Resort, Pinnacle Samui Resort, Saree Samui, Phalarn Inn Resort, โคโคปาล์ม บีช รีสอร์ท เกาะสมุย, Serenity Resort, หาดหน้าพระลาน, วัดหน้าพระลาน, John's Garden"
GH-188,สาขาพาน,888 หมู่ที่ 1 ตำบลเมืองพาน อำเภอพาน จังหวัดเชียงราย 57120,เชียงราย,Northern,57120,061-0305775,065-2911775,065-2911678,1160,08:00 น. - 19:00 น.,https://lin.ee/8OuK9rd,https://bit.ly/398P0Im,"https://maps.google.com/?q=19.55603451844219,99.7494478532227",19.55603451844219,99.7494478532227,ย่านค้าวัสดุ/ตกแต่งบ้าน / ย่านชุมชน/ตลาด,ถนน พหลโยธิน (ถนน),"ตู้ ATM(4), ร้านของตกแต่งบ้าน(1), ร้านอาหาร(1), อู่ซ่อมรถ(1), ธนาคาร(1)","คลินิกบ้านรักสัตว์, ไดนาสตี้ ไทล์ท้อป สาขา พาน, Western Union, บริษัท นิ่มลีสซิ่ง สาขาพาน, ATM Bangkok Bank, ATM Krung Thai Bank, ATM K-Bank, ATM ธนาคารไทยพาณิชย์ LOTUS SUPERMARKET พาน (เชียงราย), โจ๊กหมู-เกาเหลาเลือดหมูโกกิม, Teerawat Motor Sale Company Limited"
GH-189,สาขาเวียงป่าเป้า,154 หมู่ที่ 5 ตำบล เวียง อำเภอเวียงป่าเป้า เชียงราย 57170,เชียงราย,Northern,57170,0652407971,0610188571,0610183971,1160,08:00 น. - 18:30 น.,https://lin.ee/U4eniqe,https://www.facebook.com/globalhousewpp,"https://maps.google.com/?q=19.337604,99.510702",19.337604,99.510702,ย่านค้าวัสดุ/ตกแต่งบ้าน / ย่านชุมชน/ตลาด / ใกล้ปั๊มน้ำมัน,ไม่พบข้อมูล,"ร้านอาหาร(3), ร้านของตกแต่งบ้าน(3), ตู้ ATM(2), ร้านเสื้อผ้า(2), คาเฟ่(1), ธนาคาร(1), วัด/ศาสนสถาน(1)","ร้าน ภัทรวดี PATTA SHOP, ATM Bank for Agriculture and Agricultural Cooperatives, ธนาคารเพื่อการเกษตรและสหกรณ์การเกษตร สาขาเวียงป่าเป้า, วัดหนองยาว, PTT Station ปตท.เวียงป่าเป้า (น้ำมัน+EV) (เชียงรายกิตติรัตน์ สาขาเวียงป่าเป้า), 7-Eleven สาขา PTTOR เวียงป่าเป้า (15166), ร้านครัวอารีย์ ผัดไทย หอยทอด, ถังน้ำ ถังบำบัด DOS ใกล้ฉัน โกลบอลเฮาส์ เวียงป่าเป้า, Five Star Super Chicken by Khun Tay, หาญเจริญเฟอร์นิเจอร์สาขาเวียงป่าเป้า"
GH-191,สาขาจะนะ,เลขที่ 111 หมู่ที่ 1 ตำบลตลิ่งชัน อำเภอจะนะ จังหวัด สงขลา 90130,สงขลา,Southern,90130,0811308387,0800307187,0822011787,1160,08:00 น. - 19:00 น.,,,"https://maps.google.com/?q=6.923879135138864,100.72153289946489",6.923879135138864,100.72153289946489,ย่านค้าวัสดุ/ตกแต่งบ้าน / ใกล้สถานศึกษา / ใกล้ที่พัก/โรงแรม,ไม่พบข้อมูล,"ร้านของตกแต่งบ้าน(1), ที่พัก/โรงแรม(1), สถานีตำรวจ(1), โรงเรียน(1), อู่ซ่อมรถ(1)","โตโยต้าสงขลา สาขา จะนะ, โกลบอลเฮ้าส์ จะนะ, สามแยกบ้านท่าคลอง, กองร้อยตำรวจตระเวนชายแดนที่ ฉก.433, ศพด.อบต.ป่าชิง, ร้านรถมือสอง, อู่ช่างเจ เซอร์วิส"
GH-192,สาขาพิจิตร,80/4 ถนนสระหลวง ตำบลในเมือง อำเภอเมืองพิจิตร จังหวัดพิจิตร 66000,พิจิตร,Northern,66000,0610194878,0610198978,0610200478,1160,08:00 น. - 19:00 น.,https://lin.ee/mUT3Pgw,https://www.facebook.com/GlobalhousePI,"https://maps.google.com/?q=16.43494457750333,100.35633328356046",16.43494457750333,100.35633328356046,ย่านชุมชน/ตลาด / ใกล้สถานศึกษา / ใกล้ปั๊มน้ำมัน / ใกล้ที่พัก/โรงแรม,ไม่พบข้อมูล,"ร้านอาหาร(2), มหาวิทยาลัย(1), วัด/ศาสนสถาน(1), โรงเรียน(1), คาเฟ่(1), ปั๊มน้ำมัน(1), ตู้ ATM(1)","นฤภัทรฟาร์ม, วิทยาลัยอาชีวศึกษาพิจิตรกรมอาชีวศึกษากระทรวงศึกษาธิการ, วัดนักบุญยอแซฟ พิจิตร, โรงเรียนยอเซฟพิจิตร, แอมเวย์ ช็อป พิจิตร, คาเฟ่ อเมซอน สาขา ปตท.เมืองพิจิตร, PTT Station ปตท.เมืองพิจิตร (น้ำมัน+EV) หสน.หลิมศิริวงษ์, ATM K- Bank, 7-Eleven สาขา PTTOR เมืองพิจิตร (03828), ATM กสิกรไทย ปตท.หสน.หลิมศิริวงศ์ พิจิตร"
GH-193,สาขาพรเจริญ,434 หมู่ที่ 8 ตำบลพรเจริญ อำเภอพรเจริญ จังหวัดบึงกาฬ  38180,บึงกาฬ,Esan,38180,098-1011977,061-0189577,061-0233377,1160,08:00 น. - 18:30 น.,,,"https://maps.google.com/?q=18.03541562202081,103.71156528333199",18.03541562202081,103.71156528333199,ย่านชุมชน/ตลาด / ใกล้สถานศึกษา,ถนน พังโคน-บึงกาฬ (ถนน),"ร้านอาหาร(5), ร้านเสริมสวย(2), โรงเรียน(1), สถานีตำรวจ(1), อู่ซ่อมรถ(1), คาเฟ่(1), ร้านเสื้อผ้า(1)","โรงเรียนชุมชนบ้านโคกอุดม, ที่ว่าการอำเภอพรเจริญ, สถานีตำรวจภูธรพรเจริญ, เวสเทิร์น ยูเนี่ยน, ล้านสกายหมูกระทะ สาขา พรเจริญ, คิดเฮาส์บึงกาฬ, คัสต้อมเซอร์วิส, ฟีคาเฟ่ คอทฟี่, ร้านชายสี่บะหมี่เกี๊ยว, สกลปลาสด จำหน่ายปลานิลกระชังแม่น้ำโขง"
GH-194,สาขาระนอง,3/30 หมู่ 1 ตำบลบางนอน อำเภอเมืองระนอง จังหวัดระนอง 85000,ระนอง,Southern,85000,065-2409479,065-2390479,065-1230579,1160,08:00 น. - 19:00 น.,,,"https://maps.google.com/?q=9.999169463847831,98.65378149384074",9.999169463847831,98.65378149384074,ย่านชุมชน/ตลาด / ใกล้โรงพยาบาล / ใกล้ปั๊มน้ำมัน / ใกล้ที่พัก/โรงแรม,ไม่พบข้อมูล,"อู่ซ่อมรถ(3), ที่พัก/โรงแรม(1), ตู้ ATM(1), ปั๊มน้ำมัน(1), โรงพยาบาล(1), คาเฟ่(1), ร้านอาหาร(1)","ภูธารา รีสอร์ท, ATM กสิกรไทย บจก.โกลด์เด้น ซีฟู้ด อินเตอร์เนชั่นเนล, ห้างหุ้นส่วนจำกัด มานิตย์ออยล์ แอนด์ เซอร์วิส, โรงพยาบาลส่งเสริมสุขภาพตำบลบางนอน, สำนักงาน สหกรณ์ออมทรัพย์ครูระนอง, Lamayon Coffee Ranong, ประสิทธิ์เฟอร์นิเจอร์ ระนอง, บริษัท ระนองออโตโมบิล จำกัด, อู่ภาสกรเซอร์วิส, ร้านเชฟอ้น"
GH-195,สาขาโพนทอง,388 ตำบล สระนกแก้ว อำเภอ โพนทอง ร้อยเอ็ด 45110,ร้อยเอ็ด,Esan,45110,065-2373980,063-0238780,061-0182680,1160,08:00 น. - 18:30 น.,,,"https://maps.google.com/?q=16.2954223,103.939872",16.2954223,103.939872,ย่านชุมชน/ตลาด / ใกล้ที่พัก/โรงแรม,ไม่พบข้อมูล,"ร้านอาหาร(4), ที่พัก/โรงแรม(1), สถานีตำรวจ(1), อู่ซ่อมรถ(1)","สวนน้ำโพนทองปาร์ค, ค่ายลูกเสือสวนน้ำโพนทอง, ร้านลาบลุงแดง, หน่วยบริการประชาชนตำรวจทางหลวง, เขียงเนื้อ พ่ออุ๊ด, ใบเตยไก่สด, อู่กบยางยนต์"
GH-197,สาขาเลิงนกทา,เลขที่ 309 หมู่ที่ 2 ตำบลสามแยก อำเภอเลิงนกทา จังหวัดยโสธร 35120,ยโสธร,Esan,35120,063-0211281,062-1954781,065-2917481,1160,08:00 น. - 18:30 น.,,,"https://maps.google.com/?q=16.197940749614762,104.55778013517924",16.197940749614762,104.55778013517924,ย่านพาณิชย์/ใกล้ห้าง / ย่านค้าวัสดุ/ตกแต่งบ้าน / ใกล้ปั๊มน้ำมัน / ใกล้ที่พัก/โรงแรม,ถนน ชยางกูร (ถนน),"ปั๊มน้ำมัน(2), ที่พัก/โรงแรม(2), อู่ซ่อมรถ(2), วัด/ศาสนสถาน(1), ห้างสรรพสินค้า(1), ร้านของตกแต่งบ้าน(1)","ปั๊มน้ำมันพีที (ห้างหุ้นส่วนจำกัดเจริญรัตน์ออยล์), วัดเขมไชยาราม, ATM กสิกรไทย ตลาดโลตัส สาขาเลิงนกทา, ปั๊มน้ำมันบางจาก - สหกรณ์การเกษตร เลิงนกทา จำกัด, คุ้มเจริญกิจ เลิงนกทา, โกลบอลเฮ้าส์ เลิงนกทา, โรงแรม ไผ่สีทองรีสอร์ท, พนมซาวด์, อู่ช่างเบิ้ม, ศูนย์สมุนไพรศรีบุญ"
GH-198,สาขาปัตตานี,เลขที่ 60 หมู่ที่ 4 ตำบลบานา อำเภอเมืองปัตตานี จังหวัดปัตตานี 94000,ปัตตานี,Southern,94000,0822875886,0822194586,0811343286,1160,08:00 น. - 19:00 น.,,,"https://maps.google.com/?q=6.869827255396387,101.28371802089659",6.869827255396387,101.28371802089659,ย่านค้าวัสดุ/ตกแต่งบ้าน / ใกล้สถานศึกษา,ไม่พบข้อมูล,"โรงเรียน(2), วัด/ศาสนสถาน(1), ร้านของตกแต่งบ้าน(1), อู่ซ่อมรถ(1)","โรงเรียนดารุลซอฟ่าฮ์ darulsofa, Slee-Pa Bana Bike parts & Accessories, ร้านจักรยานบานาไบค์ ปัตตานี, โรงเรียนบ้านบานา, บริษัท มียี กรุ๊ป จำกัด, Masjid Hajah Wan-Aisyah, โกลบอลเฮ้าส์ ปัตตานี, สำนักงานสงเคราะห์ทหารผ่านศึกเขตปัตตานี, เต็นท์รถมือสองอัสมะออร์โต้คาร์, สลามัต อะไหล่แต่ง"
GH-199,สาขาลาดยาว ,35 หมู่ที่ 8 ต.สระแก้ว อ.ลาดยาว จ.นครสวรรค์ 60150,นครสวรรค์,Northern,60150,0985848296,0933238496,0621971896,1160,08:00 น. - 19:00 น.,,,"https://maps.google.com/?q=15.758031266191663,99.82245052883503",15.758031266191663,99.82245052883503,ย่านพาณิชย์/ใกล้ห้าง / ย่านค้าวัสดุ/ตกแต่งบ้าน / ย่านชุมชน/ตลาด / ใกล้สถานศึกษา,ไม่พบข้อมูล,"ห้างสรรพสินค้า(2), ร้านอาหาร(2), โรงเรียน(1), ร้านฮาร์ดแวร์(1), คาเฟ่(1), ซูเปอร์มาร์เก็ต(1), ร้านเสื้อผ้า(1)","โรงเรียนชุมชนบ้านดอนโม่, โกลบอลเฮ้าส์ ลาดยาว, ร้านดอนโม่การเกษตร, HOP Chafe สาขาดอนโม่, โครงการทวีทรัพย์ลาดยาว (Taweesup Ladyao), เอบีโฟน-ตลาดดอนโม่, คลินิก​ทันตกรรม​กู​๊​ดส​ไมล์​, ร้านประพันธ์ดอนโม่, ร้านกระแดะจัง, ร้านก๋วยเตี๋ยวดอนโม่"
GH-200,สาขาชุมพร,เลขที่ 11/4 หมู่ที่ 2 ตำบลบางลึก อำเภอเมืองชุมพร จังหวัดชุมพร 86000,ชุมพร,Southern,86000,063-2164883,063-2189683,063-2180983,1160,08:00 น. - 19:00 น.,,,"https://maps.google.com/?q=10.507190381361562,99.16570977120018",10.507190381361562,99.16570977120018,ย่านค้าวัสดุ/ตกแต่งบ้าน / ย่านชุมชน/ตลาด / ใกล้ที่พัก/โรงแรม,ไม่พบข้อมูล,"อู่ซ่อมรถ(2), ร้านอาหาร(2), คาเฟ่(2), ที่พัก/โรงแรม(1), ร้านของตกแต่งบ้าน(1), ร้านฮาร์ดแวร์(1)","Palm Sweet Resort, โรงงานคอนกรีตผสมเสร็จซีแพคชุมพร, JS-ONE Air and Sound (เจเอสวัน แอร์แอนด์ซาวด์), โตโต้ โซฟา ชุมพร, สยามนิสสัน ชุมพร, ขายลอดช่องแตงไทย(แลน)​, โกลบอลเฮ้าส์ สาขาชุมพร, Syy cafe, ศูนย์ฝึกอบรม สงวนยางยนต์ x แอลแอลไอที Training center SYY x LLIT, ร้านอาหารตามสั่งแม่เล็กโภชนา"
GH-201,สาขาพิมาย,เลขที่ 789 หมู่ที่ 14 อำเภอพิมาย นครราชสีมา 30110,นครราชสีมา,Esan,30110,065-1219185,065-2407985,061-0273785,1160,08:00 น. - 19:00 น.,,,"https://maps.google.com/?q=15.202482910535378,102.48748563067902",15.202482910535378,102.48748563067902,ย่านพาณิชย์/ใกล้ห้าง / ย่านค้าวัสดุ/ตกแต่งบ้าน / ย่านชุมชน/ตลาด,ไม่พบข้อมูล,"ร้านของตกแต่งบ้าน(1), โรงภาพยนตร์(1), ร้านอาหาร(1), ซูเปอร์มาร์เก็ต(1)","โกลบอลเฮ้าส์ พิมาย, Designed by L-max, คุณนายตุ่นเฮลท์แคร์, ส้มโอโต๊จีน, ร้านส้มตำและขายของชำ แม่น้องอั้ม, บ้านหมอกิ๊กรักษาสัตว์, ร้านนวด บ้านเพื่อสุขภาพ, บริษัท มิตรราชสีมาเทรดดิ้ง จำกัด สาขาพิมาย (แห่งใหม่)"
GH-202,สาขานราธิวาส,เลขที่ 149 ซอย 3 ตำบลละหาร อำเภอยี่งอ จังหวัดนราธิวาส 96180,นราธิวาส,Southern,96180,061-0289591,061-0300291,098-1033291,1160,08:00 น. - 19:00 น.,,,"https://maps.google.com/?q=6.405451925809874,101.7757210423289",6.405451925809874,101.7757210423289,ย่านค้าวัสดุ/ตกแต่งบ้าน,ไม่พบข้อมูล,"ร้านของตกแต่งบ้าน(2), คาเฟ่(1), ร้านอิเล็กทรอนิกส์(1)","La Mayon coffee สาขานราธิวาส, โกลบอลเฮ้าส์ สาขานราธิวาส, อำพลฟูดส์นราธิวาส, บริษัท วัลภาเมทัลชีท จำกัด สาขา นราธิวาส, JFN Co.,ltd (Drop Cable Point)"
GH-203,สาขากระนวน,369 หมู่ที่ 7 ต.หนองโน อ.กระนวน จ.ขอนแก่น 40170,ขอนแก่น,Esan,40170,061-0268182,061-0301382,061-0201682,1160,08:00 น. - 18:30 น.,,,"https://maps.google.com/?q=16.705704985347545,103.0373930202561",16.705704985347545,103.0373930202561,ย่านค้าวัสดุ/ตกแต่งบ้าน / ย่านชุมชน/ตลาด / ใกล้ปั๊มน้ำมัน,ไม่พบข้อมูล,"อู่ซ่อมรถ(4), ร้านของตกแต่งบ้าน(3), คาเฟ่(2), ร้านอาหาร(2), ธนาคาร(1), ปั๊มน้ำมัน(1), ตู้ ATM(1)","ATM กสิกรไทย เซเว่นฯ เที่ยงธรรม กระนวน, PTT Station ปตท.กระนวน (น้ำมัน+EV) บริษัท มิตรกระนวนการปิโตรเลียม จำกัด, ATM Bangkok Bank, ชานมไข่มุก ชาโบบา, สาขา บจ.มิตรกระนวนการปิโตรเลียม, บริษัท โค้วยู่ฮะมอเตอร์ จำกัด สาขากระนวน โชว์รูมอีซูซุ ศูนย์บริการอีซูซุ, โกลบอลเฮ้าส์ กระนวน, อู่ซ่อมไดนาโม, อู่กระนวนช่างกล, ณคุณการยาง"
GH-206,สาขาสว่างแดนดิน,300 หมู่ที่ 26 ตำบลสว่างแดนดิน อำเภอสว่างแดนดิน จังหวัดสกลนคร 47110,สกลนคร,Esan,47110,093-3278588,098-1030688,098-1039488,1160,08:00 น. - 19:00 น.,,,"https://maps.google.com/?q=17.453702541468715,103.41860531021217",17.453702541468715,103.41860531021217,ย่านค้าวัสดุ/ตกแต่งบ้าน / ย่านชุมชน/ตลาด / ใกล้สถานศึกษา / ใกล้ที่พัก/โรงแรม,ไม่พบข้อมูล,"ร้านอาหาร(4), คาเฟ่(4), ที่พัก/โรงแรม(2), โรงเรียน(1), ร้านของตกแต่งบ้าน(1)","หจก. คูโบต้าปิติแทรกเตอร์, โรงเรียนบ้านคำสะอาด สว่างแดนดิน, โกลบอลเฮ้าส์ สาขาสว่างแดนดิน, La Mayon coffee สาขาสว่างแดนดิน, Sweet Monkey สวีทมังคี, ร้านน้องวัวป่าสัก, โลตัสสว่างแดนดิน, Biker Coffee Route22, โรงบรรจุน้ำดื่ม ตราเพียวโกลด์ ( Pure Gold ), โรงแรมป่าสักรีสอร์ทสว่างแดนดิน"
GH-207,สาขาลำปลายมาศ,208 หมู่ที่ 5 ตำบลลำปลายมาศ อำเภอลำปลายมาศ จังหวับุรีรัมย์ 31130,บุรีรัมย์,Esan,31130,098-1050989,098-1024089,098-1022489,1160,08:00 น. - 19:00 น.,,,"https://maps.google.com/?q=15.012841921530766,102.83661593288697",15.012841921530766,102.83661593288697,ย่านพาณิชย์/ใกล้ห้าง / ย่านชุมชน/ตลาด / ใกล้สถานศึกษา / ใกล้ปั๊มน้ำมัน,ทางหลวงแผ่นดินหมายเลข 226 (ทางหลวงแผ่นดิน),"อู่ซ่อมรถ(2), ร้านอิเล็กทรอนิกส์(2), ร้านอาหาร(2), ซูเปอร์มาร์เก็ต(1), ปั๊มน้ำมัน(1), โรงเรียน(1)","สยามธนกิจ, ไอไลค์มาร์ท, Shell, โรงเรียนจันทราวาส (คุรุราษฎร์วิทยา), ไปรษณีย์ลำปลายมาศ, ไอทีรูม, กิจพรชัยอะไหล่ยนต์, ร้านอาหารน้องเอ, ร้านต้นมะยม น้ำดื่ม, ร้านเบนซ์คอมพิวเตอร์"
GH-209,สาขาสวรรคโลก,เลขที่ 59 ซอย 1 ถนนประชาราษฎร์ ตำบลเมืองสวรรคโลก อำเภอสวรรคโลก จังหวัดสุโขทัย 64110,สุโขทัย,Northern,64110,098-1051090,098-5843090,098-1059690,1160,08:00 น. - 19:00 น.,https://line.me/R/ti/p/@245zluqq,https://www.facebook.com/share/17znNPhLv1/?mibextid=LQQJ4d,"https://maps.google.com/?q=17.306027124114234,99.81895262883552",17.306027124114234,99.81895262883552,ย่านพาณิชย์/ใกล้ห้าง / ย่านค้าวัสดุ/ตกแต่งบ้าน / ย่านชุมชน/ตลาด / ใกล้โรงพยาบาล / ใกล้ที่พัก/โรงแรม,ไม่พบข้อมูล,"ร้านอาหาร(5), ร้านของตกแต่งบ้าน(2), ที่พัก/โรงแรม(1), อู่ซ่อมรถ(1), ซูเปอร์มาร์เก็ต(1), โรงพยาบาล(1), บาร์(1)","Baan Farang Leelawadee, ศาลจังหวัดสวรรคโลก, โกลบอลเฮ้าส์ สาขาสวรรคโลก, Verno สาขาสวรรคโลก, บริษัท โตโยต้าสุโขทัย ผู้จำหน่ายโตโยต้า จำกัด สวรรคโลก, เซญ่า บุฟเฟต์, ร้านเก๋คาร์ออดิโอ แอร์ ฟิล์ม, เก้าคูณมินิมาร์ท, ช.เกษตร, ร้านข้าวต้มแห้งคุณนิด สวรรคโลก สุโขทัย"
GH-210,สาขาบ้านดุง,เลขที่ 105 หมู่ 1ตรอกบ้านดุง ต.บ้านดุง อ.บ้านดุง จ.อุดรธานี 41190,อุดรธานี,Esan,41190,093-3273092,098-1046192,098-5845192,1160,08:00 น. - 19:00 น.,,,"https://maps.google.com/?q=17.707954161489784,103.25149333558224",17.707954161489784,103.25149333558224,ย่านพาณิชย์/ใกล้ห้าง / ย่านค้าวัสดุ/ตกแต่งบ้าน / ย่านชุมชน/ตลาด / ใกล้สถานศึกษา / ใกล้ที่พัก/โรงแรม,ไม่พบข้อมูล,"ที่พัก/โรงแรม(4), ร้านของตกแต่งบ้าน(2), โรงเรียน(1), คาเฟ่(1), ห้างสรรพสินค้า(1), ร้านอาหาร(1), ร้านล้างรถ(1)","Heuan Na Khee, ศักดิ์ชัย​ อพาร์ตเมนท์ ( Sakchai Apartment), โรงเรียนเทศบาล 2 ชุมชนบ้านดุง, กุญณภัทรสปา สปานาเกลือบ้านดุง อุดรธานี, เอเชีย J Shop, La Mayon coffee สาขาบ้านดุง, โกลบอลเฮ้าส์ บ้านดุง, ร้านบายศรีจอดจอดจอด, ป๊อปปี้พานบายศรีคำชะโนด, GLOBAL"
GH-211,สาขาเดอะไนน์เซ็นเตอร์ติวานนท์,99/99 หมู่ที่ 2 ตำบลบางกะดี อำเภอเมืองปทุมธานี จังหวัดปทุมธานี 12000,ปทุมธานี,BKK&Metro,12000,061-0267284,065-2366184,,1160,09:00 น. - 21:00 น.,,,"https://maps.google.com/?q=13.980001252656955,100.55043407943901",13.980001252656955,100.55043407943901,ย่านพาณิชย์/ใกล้ห้าง / ย่านชุมชน/ตลาด / ใกล้สถานศึกษา / ใกล้ที่พัก/โรงแรม,ไม่พบข้อมูล,"ตู้ ATM(5), ที่พัก/โรงแรม(2), ธนาคาร(1), อู่ซ่อมรถ(1), ร้านอาหาร(1), ซูเปอร์มาร์เก็ต(1), โรงเรียน(1)","โรงแรม ปทุมธานีเพลส, โรงแรมทินิดี บางกอก กอล์ฟ คลับ, ธนาคารไทยพาณิชย์ จก (มหาชน) สาขาบางกะดีปทุมธานี, บจก. โปรไฟล์พรีซิขั่น จำกัด, 7-Eleven สาขา อุตสาหกรรมบางกะดี (02194), ATM ธนาคารกรุงเทพ, Western Union, ATM Thanachart Bank, Lifatree Organic Center, ATM K-Bank"
GH-212,สาขาสมเด็จ,488 หมู่ที่ 10 ต.สมเด็จ อ.สมเด็จ จ.กาฬสินธุ์ 46150,กาฬสินธุ์,Esan,46150,0985850295,0985843795,0621957295,1160,08:00 น. - 19:00 น.,,,"https://maps.google.com/?q=16.699726453140116,103.73922646377783",16.699726453140116,103.73922646377783,ย่านค้าวัสดุ/ตกแต่งบ้าน / ย่านชุมชน/ตลาด / ใกล้ปั๊มน้ำมัน,ไม่พบข้อมูล,"ธนาคาร(3), ตู้ ATM(3), ร้านอาหาร(2), อู่ซ่อมรถ(2), ปั๊มน้ำมัน(1), ร้านของตกแต่งบ้าน(1), เบเกอรี่(1)","ปลาน้ำโขงเจ้าเก่า, ธนาคารกรุงเทพ, ร้านหยูเจริญยนต์, ปั๊มเชลล์ หจก.แสงไทยพาณิชย์สมเด็จ, ATM Bangkok Bank, รวมภัณฑ์2, Siam Commercial Bank Cash Deposit Machine (CDM), 7-Eleven สาขา สมเด็จ (01017), ธนาคารกสิกรไทย สาขาสมเด็จ, สมหวังการช่าง"
GH-213,สาขาเวียงสา,เลขที่ 224 หมู่ 11 ต.กลางเวียง อ.เวียงสา จ.น่าน 55110,น่าน,Northern,55110,0985858294,0651207494,0610190794,1160,08:00 น. - 19:00 น.,https://line.me/R/ti/p/@652ggtzd,https://www.facebook.com/GlobalHouseWSA,"https://maps.google.com/?q=18.681594721644206,100.71465835559073",18.681594721644206,100.71465835559073,ย่านทั่วไป,ไม่พบข้อมูล,วัด/ศาสนสถาน(1),สวนธรรมวิเวการาม
GH-214,สาขาแม่สอด,เลขที่ 980 หมู่ที่ 2 ตำบลพระธาตุผาแดง  อำเภอแม่สอด จังหวัดตาก 63110,ตาก,Western,63110,0614140593,0631903593,0631913593,1160,08:00 น. - 20.00 น.,,,"https://maps.google.com/?q=16.707374850779463,98.59947991103732",16.707374850779463,98.59947991103732,ย่านค้าวัสดุ/ตกแต่งบ้าน / ย่านชุมชน/ตลาด / ใกล้สถานศึกษา / ใกล้ปั๊มน้ำมัน / ใกล้ที่พัก/โรงแรม,1090 (ทางหลวง/ถนนหมายเลข),"ที่พัก/โรงแรม(2), อู่ซ่อมรถ(2), บาร์(1), ร้านเสื้อผ้า(1), โรงเรียน(1), ร้านของตกแต่งบ้าน(1), คาเฟ่(1)","ตำบล แม่สอด, PHUDOY BAR, แชมป์ผ้าไท, โรงเรียนบ้านหัวฝาย, ริมน้ำป่าคา รีสอร์ท, โกลบอลเฮ้าส์ สาขาแม่สอด, THAYADA COFFEE SHOP, อีน ออโต้ซาวด์, หอพัก P.F.house, Mood Cafe"
GH-216,สาขาโพนพิสัย,เลขที่ 275 หมู่ที่ 3 ต.จุมพล อ.โพนพิสัย จ.หนองคาย 43120,หนองคาย,Esan,43120,0632725597,0632107397,0614145797,1160,08:00 น. - 19:00 น.,https://lin.ee/ogXaDDx,https://www.facebook.com/GlobalHousePPS/,"https://maps.google.com/?q=18.0528591,103.0861297",18.0528591,103.0861297,ย่านชุมชน/ตลาด / ใกล้โรงพยาบาล / ใกล้ที่พัก/โรงแรม,ไม่พบข้อมูล,"ที่พัก/โรงแรม(3), โรงพยาบาล(1), ร้านอาหาร(1), คาเฟ่(1), อู่ซ่อมรถ(1)","บ้านสวนศุภลักษณ์, โรงพยาบาลโพนพิสัย, แกงเส้น ก๋วยจั๊บ, Flight Time Café เวลาบิน คาเฟ่, Morena Camping โมรีน่า เเคมป์ปิ้ง&บาร์, เจ ออโต้พาร์ท, โรงแรมแฟนซีริเวอร์ไซค์รีสอร์ท, ห้องฉุกเฉิน โรงพยาบาลโพนพิสัย"
